LocationNO,Country,State_Abbv,State,County,City,ZipCode
47777,United States,IN,Indiana,Madison,ANDERSON,46012
47802,United States,IN,Indiana,Madison,ANDERSON,46013
47827,United States,IN,Indiana,Madison,ANDERSON,46016
47852,United States,IN,Indiana,Steuben,ANGOLA,46703
47877,United States,IN,Indiana,DeKalb,AUBURN,46706
47902,United States,IN,Indiana,Hendricks,AVON,46123
47927,United States,IN,Indiana,Ripley,BATESVILLE,47006
47952,United States,IN,Indiana,Marion,BEECH GROVE,46107
47977,United States,IN,Indiana,Adams,BERNE,46711
48002,United States,IN,Indiana,Knox,BICKNELL,47512
48027,United States,IN,Indiana,Monroe,BLOOMINGTON,47401
48052,United States,IN,Indiana,Monroe,BLOOMINGTON,47403
48077,United States,IN,Indiana,Marion,CAMBY,46113
48102,United States,IN,Indiana,Hamilton,CARMEL,46032
48127,United States,IN,Indiana,Madison,CHESTERFIELD,46017
48152,United States,IN,Indiana,Porter,CHESTERTON,46304
48177,United States,IN,Indiana,Clark,CLARKSVILLE,47129
48202,United States,IN,Indiana,Bartholomew,COLUMBUS,47201
48227,United States,IN,Indiana,Bartholomew,COLUMBUS,47203
48252,United States,IN,Indiana,Fayette,CONNERSVILLE,47331
48277,United States,IN,Indiana,Harrison,CORYDON,47112
48302,United States,IN,Indiana,Montgomery,CRAWFORDSVILLE,47933
48327,United States,IN,Indiana,Lake,CROWN POINT,46307
48352,United States,IN,Indiana,Jasper,DEMOTTE,46310
48377,United States,IN,Indiana,Lake,DYER,46311
48402,United States,IN,Indiana,Lake,EAST CHICAGO,46312
48427,United States,IN,Indiana,Vanderburgh,EVANSVILLE,47710
48452,United States,IN,Indiana,Vanderburgh,EVANSVILLE,47711
48477,United States,IN,Indiana,Vanderburgh,EVANSVILLE,47714
48502,United States,IN,Indiana,Vanderburgh,EVANSVILLE,47715
48527,United States,IN,Indiana,Vanderburgh,EVANSVILLE,47725
48552,United States,IN,Indiana,Vanderburgh,EVANSVILLE,47734
48577,United States,IN,Indiana,,FISHERS,46037
48602,United States,IN,Indiana,Allen,FORT WAYNE,46802
48627,United States,IN,Indiana,Allen,FORT WAYNE,46804
48652,United States,IN,Indiana,Allen,FORT WAYNE,46805
48677,United States,IN,Indiana,Allen,FORT WAYNE,46806
48702,United States,IN,Indiana,Allen,FORT WAYNE,46808
48727,United States,IN,Indiana,Allen,FORT WAYNE,46814
48752,United States,IN,Indiana,Allen,FORT WAYNE,46825
48777,United States,IN,Indiana,Johnson,FRANKLIN,46131
48802,United States,IN,Indiana,Lake,GARY,46404
48827,United States,IN,Indiana,Lake,GARY,46406
48852,United States,IN,Indiana,Lake,GARY,46408
48877,United States,IN,Indiana,Elkhart,GOSHEN,46526
48902,United States,IN,Indiana,St. Joseph,GRANGER,46530
48927,United States,IN,Indiana,Hancock,GREENFIELD,46140
48952,United States,IN,Indiana,Decatur,GREENSBURG,47240
48977,United States,IN,Indiana,Johnson,GREENWOOD,46143
49002,United States,IN,Indiana,Lake,GRIFFITH,46319
49027,United States,IN,Indiana,Lake,HAMMOND,46320
49052,United States,IN,Indiana,Lake,HAMMOND,46323
49077,United States,IN,Indiana,Lake,HAMMOND,46324
49102,United States,IN,Indiana,Blackford,HARTFORD CITY,47348
49127,United States,IN,Indiana,Lake,HIGHLAND,46322
49152,United States,IN,Indiana,Lake,HOBART,46342
49177,United States,IN,Indiana,Dubois,HUNTINGBURG,47542
49202,United States,IN,Indiana,Marion,INDIANAPOLIS,46203
49227,United States,IN,Indiana,Marion,INDIANAPOLIS,46204
49252,United States,IN,Indiana,Marion,INDIANAPOLIS,46205
49277,United States,IN,Indiana,Marion,INDIANAPOLIS,46214
49302,United States,IN,Indiana,Marion,INDIANAPOLIS,46219
49327,United States,IN,Indiana,Marion,INDIANAPOLIS,46220
49352,United States,IN,Indiana,Marion,INDIANAPOLIS,46227
49377,United States,IN,Indiana,Marion,INDIANAPOLIS,46237
49402,United States,IN,Indiana,Marion,INDIANAPOLIS,46239
49427,United States,IN,Indiana,Marion,INDIANAPOLIS,46240
49452,United States,IN,Indiana,Marion,INDIANAPOLIS,46241
49477,United States,IN,Indiana,Marion,INDIANAPOLIS,46250
49502,United States,IN,Indiana,Marion,INDIANAPOLIS,46254
49527,United States,IN,Indiana,Marion,INDIANAPOLIS,46256
49552,United States,IN,Indiana,Marion,INDIANAPOLIS,46260
49577,United States,IN,Indiana,Marion,INDIANAPOLIS,46268
49602,United States,IN,Indiana,Hamilton,INDIANAPOLIS,46280
49627,United States,IN,Indiana,Dubois,JASPER,47546
49652,United States,IN,Indiana,Clark,JEFFERSONVILLE,47130
49677,United States,IN,Indiana,Howard,KOKOMO,46902
49702,United States,IN,Indiana,LaPorte,LA PORTE,46350
49727,United States,IN,Indiana,Tippecanoe,LAFAYETTE,47901
49752,United States,IN,Indiana,Tippecanoe,LAFAYETTE,47904
49777,United States,IN,Indiana,Tippecanoe,LAFAYETTE,47905
49802,United States,IN,Indiana,Dearborn,LAWRENCEBURG,47025
49827,United States,IN,Indiana,Boone,LEBANON,46052
49852,United States,IN,Indiana,Greene,LINTON,47441
49877,United States,IN,Indiana,Cass,LOGANSPORT,46947
49902,United States,IN,Indiana,Jefferson,MADISON,47250
49927,United States,IN,Indiana,Grant,MARION,46952
49952,United States,IN,Indiana,Grant,MARION,46953
49977,United States,IN,Indiana,Morgan,MARTINSVILLE,46151
50002,United States,IN,Indiana,Lake,MERRILLVILLE,46410
50027,United States,IN,Indiana,LaPorte,MICHIGAN CITY,46360
50052,United States,IN,Indiana,St. Joseph,MISHAWAKA,46545
50077,United States,IN,Indiana,Lawrence,MITCHELL,47446
50102,United States,IN,Indiana,Morgan,MOORESVILLE,46158
50127,United States,IN,Indiana,Delaware,MUNCIE,47304
50152,United States,IN,Indiana,Delaware,MUNCIE,47305
50177,United States,IN,Indiana,Lake,MUNSTER,46321
50202,United States,IN,Indiana,Floyd,NEW ALBANY,47150
50227,United States,IN,Indiana,Henry,NEW CASTLE,47362
50252,United States,IN,Indiana,Allen,NEW HAVEN,46774
50277,United States,IN,Indiana,Johnson,NINEVEH,46164
50302,United States,IN,Indiana,Hamilton,NOBLESVILLE,46060
50327,United States,IN,Indiana,Hamilton,NOBLESVILLE,46062
50352,United States,IN,Indiana,Porter,PORTAGE,46368
50377,United States,IN,Indiana,Gibson,PRINCETON,47670
50402,United States,IN,Indiana,Jasper,RENSSELAER,47978
50427,United States,IN,Indiana,Wayne,RICHMOND,47374
50452,United States,IN,Indiana,Fulton,ROCHESTER,46975
50477,United States,IN,Indiana,Lake,SAINT JOHN,46373
50502,United States,IN,Indiana,Lake,SCHERERVILLE,46375
50527,United States,IN,Indiana,Scott,SCOTTSBURG,47170
50552,United States,IN,Indiana,Clark,SELLERSBURG,47172
50577,United States,IN,Indiana,Jackson,SEYMOUR,47274
50602,United States,IN,Indiana,Shelby,SHELBYVILLE,46176
50627,United States,IN,Indiana,St. Joseph,SOUTH BEND,46635
50652,United States,IN,Indiana,St. Joseph,SOUTH BEND,46637
50677,United States,IN,Indiana,Sullivan,SULLIVAN,47882
50702,United States,IN,Indiana,Perry,TELL CITY,47586
50727,United States,IN,Indiana,Vigo,TERRE HAUTE,47804
50752,United States,IN,Indiana,Vigo,TERRE HAUTE,47807
50777,United States,IN,Indiana,Porter,VALPARAISO,46383
50802,United States,IN,Indiana,Knox,VINCENNES,47591
50827,United States,IN,Indiana,Dearborn,W HARRISON,47060
50852,United States,IN,Indiana,Wabash,WABASH,46992
50877,United States,IN,Indiana,Kosciusko,WARSAW,46580
50902,United States,IN,Indiana,Hamilton,WESTFIELD,46074
50927,United States,IN,Indiana,Pulaski,WINAMAC,46996
50952,United States,IN,Indiana,Randolph,WINCHESTER,47394
53102,United States,KY,Kentucky,Boyd,ASHLAND,41101
53127,United States,KY,Kentucky,Knox,BARBOURVILLE,40906
53152,United States,KY,Kentucky,Marshall,BENTON,42025
53177,United States,KY,Kentucky,Warren,BOWLING GREEN,42101
53202,United States,KY,Kentucky,Warren,BOWLING GREEN,42104
53227,United States,KY,Kentucky,Trigg,CADIZ,42211
53252,United States,KY,Kentucky,Adair,COLUMBIA,42728
53277,United States,KY,Kentucky,Kenton,CRESTVIEW HILLS,41017
53302,United States,KY,Kentucky,Harrison,CYNTHIANA,41031
53327,United States,KY,Kentucky,Boyle,DANVILLE,40422
53352,United States,KY,Kentucky,Kenton,EDGEWOOD,41017
53377,United States,KY,Kentucky,Hardin,ELIZABETHTOWN,42701
53402,United States,KY,Kentucky,Kenton,ERLANGER,41018
53427,United States,KY,Kentucky,Boone,FLORENCE,41042
53452,United States,KY,Kentucky,Kenton,FORT MITCHELL,41017
53477,United States,KY,Kentucky,Campbell,FORT THOMAS,41075
53502,United States,KY,Kentucky,Kenton,FORT WRIGHT,41011
53527,United States,KY,Kentucky,Franklin,FRANKFORT,40601
53552,United States,KY,Kentucky,Fulton,FULTON,42041
53577,United States,KY,Kentucky,Barren,GLASGOW,42141
53602,United States,KY,Kentucky,Greenup,GREENUP,41144
53627,United States,KY,Kentucky,Muhlenberg,GREENVILLE,42345
53652,United States,KY,Kentucky,Breckinridge,HARDINSBURG,40143
53677,United States,KY,Kentucky,Harlan,HARLAN,40831
53702,United States,KY,Kentucky,Ohio,HARTFORD,42347
53727,United States,KY,Kentucky,Perry,HAZARD,41701
53752,United States,KY,Kentucky,Henderson,HENDERSON,42420
53777,United States,KY,Kentucky,Christian,HOPKINSVILLE,42240
53802,United States,KY,Kentucky,Leslie,HYDEN,41749
53827,United States,KY,Kentucky,Breathitt,JACKSON,41339
53852,United States,KY,Kentucky,Kenton,LAKESIDE PARK,41017
53877,United States,KY,Kentucky,Grayson,LEITCHFIELD,42754
53902,United States,KY,Kentucky,Fayette,LEXINGTON,40503
53927,United States,KY,Kentucky,Fayette,LEXINGTON,40504
53952,United States,KY,Kentucky,Fayette,LEXINGTON,40505
53977,United States,KY,Kentucky,Fayette,LEXINGTON,40509
54002,United States,KY,Kentucky,Fayette,LEXINGTON,40511
54027,United States,KY,Kentucky,Laurel,LONDON,40741
54052,United States,KY,Kentucky,Laurel,LONDON,40744
54077,United States,KY,Kentucky,Lawrence,LOUISA,41230
54102,United States,KY,Kentucky,Jefferson,LOUISVILLE,40202
54127,United States,KY,Kentucky,Jefferson,LOUISVILLE,40205
54152,United States,KY,Kentucky,Jefferson,LOUISVILLE,40207
54177,United States,KY,Kentucky,Jefferson,LOUISVILLE,40213
54202,United States,KY,Kentucky,Jefferson,LOUISVILLE,40218
54227,United States,KY,Kentucky,Jefferson,LOUISVILLE,40222
54252,United States,KY,Kentucky,Jefferson,LOUISVILLE,40223
54277,United States,KY,Kentucky,Jefferson,LOUISVILLE,40272
54302,United States,KY,Kentucky,Jefferson,LOUISVILLE,40299
54327,United States,KY,Kentucky,Hopkins,MADISONVILLE,42431
54352,United States,KY,Kentucky,Clay,MANCHESTER,40962
54377,United States,KY,Kentucky,Crittenden,MARION,42064
54402,United States,KY,Kentucky,Graves,MAYFIELD,42066
54427,United States,KY,Kentucky,Mason,MAYSVILLE,41056
54452,United States,KY,Kentucky,Floyd,MC DOWELL,41647
54477,United States,KY,Kentucky,Bell,MIDDLESBORO,40965
54502,United States,KY,Kentucky,Rowan,MOREHEAD,40351
54527,United States,KY,Kentucky,Montgomery,MOUNT STERLING,40353
54552,United States,KY,Kentucky,Rockcastle,MOUNT VERNON,40456
54577,United States,KY,Kentucky,Calloway,MURRAY,42071
54602,United States,KY,Kentucky,Jessamine,NICHOLASVILLE,40356
54627,United States,KY,Kentucky,Daviess,OWENSBORO,42301
54652,United States,KY,Kentucky,Daviess,OWENSBORO,42302
54677,United States,KY,Kentucky,Daviess,OWENSBORO,42303
54702,United States,KY,Kentucky,Owen,OWENTON,40359
54727,United States,KY,Kentucky,McCracken,PADUCAH,42001
54752,United States,KY,Kentucky,Johnson,PAINTSVILLE,41240
54777,United States,KY,Kentucky,Pike,PIKEVILLE,41501
54802,United States,KY,Kentucky,Bell,PINEVILLE,40977
54827,United States,KY,Kentucky,Floyd,PRESTONSBURG,41653
54852,United States,KY,Kentucky,Caldwell,PRINCETON,42445
54877,United States,KY,Kentucky,Madison,RICHMOND,40475
54902,United States,KY,Kentucky,Logan,RUSSELLVILLE,42276
54927,United States,KY,Kentucky,Pulaski,SOMERSET,42503
54952,United States,KY,Kentucky,Pike,SOUTH WILLIAMSON,41503
54977,United States,KY,Kentucky,Monroe,TOMPKINSVILLE,42167
55002,United States,KY,Kentucky,Lewis,VANCEBURG,41179
55027,United States,KY,Kentucky,Morgan,WEST LIBERTY,41472
55052,United States,KY,Kentucky,Letcher,WHITESBURG,41858
55077,United States,KY,Kentucky,Whitley,WILLIAMSBURG,40769
55102,United States,KY,Kentucky,Clark,WINCHESTER,40391
62227,United States,ME,Maine,Penobscot,BANGOR,4401
62252,United States,ME,Maine,Penobscot,BANGOR,4402
62277,United States,ME,Maine,Cumberland,BRUNSWICK,4011
62302,United States,ME,Maine,Washington,CALAIS,4619
62327,United States,ME,Maine,Aroostook,CARIBOU,4736
62352,United States,ME,Maine,Lincoln,DAMARISCOTTA,4543
62377,United States,ME,Maine,Aroostook,HOULTON,4730
62427,United States,ME,Maine,Androscoggin,LEWISTON,4240
62452,United States,ME,Maine,Washington,LUBEC,4652
62477,United States,ME,Maine,Cumberland,PORTLAND,4102
62502,United States,ME,Maine,Cumberland,PORTLAND,4103
62527,United States,ME,Maine,York,SACO,4072
62552,United States,ME,Maine,Somerset,SMITHFIELD,4978
62577,United States,ME,Maine,Cumberland,SO PORTLAND,4106
62602,United States,ME,Maine,Cumberland,SOUTH PORTLAND,4106
62627,United States,ME,Maine,Kennebec,WATERVILLE,4901
62677,United States,MI,Michigan,Lenawee,ADRIAN,49221
62702,United States,MI,Michigan,Allegan,ALLEGAN,49010
62727,United States,MI,Michigan,Wayne,ALLEN PARK,48101
62752,United States,MI,Michigan,Alpena,ALPENA,49707
62777,United States,MI,Michigan,Washtenaw,ANN ARBOR,48103
62802,United States,MI,Michigan,Washtenaw,ANN ARBOR,48104
62827,United States,MI,Michigan,Washtenaw,ANN ARBOR,48108
62852,United States,MI,Michigan,Oakland,AUBURN HILLS,48326
62877,United States,MI,Michigan,,BATTLE CREEK,49037
62902,United States,MI,Michigan,Bay,BAY CITY,48706
62927,United States,MI,Michigan,Bay,BAY CITY,48708
62952,United States,MI,Michigan,Berrien,BENTON HARBOR,49022
62977,United States,MI,Michigan,Oakland,BERKLEY,48072
63002,United States,MI,Michigan,Mecosta,BIG RAPIDS,49307
63027,United States,MI,Michigan,Oakland,BINGHAM FARMS,48025
63052,United States,MI,Michigan,Oakland,BLOOMFIELD HILLS,48301
63077,United States,MI,Michigan,Oakland,BLOOMFIELD HILLS,48302
63102,United States,MI,Michigan,Berrien,BRIDGMAN,49106
63127,United States,MI,Michigan,Livingston,BRIGHTON,48114
63152,United States,MI,Michigan,Livingston,BRIGHTON,48116
63177,United States,MI,Michigan,Wayne,BROWNSTOWN,48174
63202,United States,MI,Michigan,Wayne,BROWNSTOWN,48183
63227,United States,MI,Michigan,Genesee,BURTON,48509
63252,United States,MI,Michigan,Wexford,CADILLAC,49601
63277,United States,MI,Michigan,Houghton,CALUMET,49913
63302,United States,MI,Michigan,Mecosta,CANADIAN LAKES,49346
63327,United States,MI,Michigan,Wayne,CANTON,48187
63352,United States,MI,Michigan,Tuscola,CARO,48723
63377,United States,MI,Michigan,Montcalm,CARSON CITY,48811
63402,United States,MI,Michigan,Charlevoix,CHARLEVOIX,49720
63427,United States,MI,Michigan,Eaton,CHARLOTTE,48813
63452,United States,MI,Michigan,Cheboygan,CHEBOYGAN,49721
63477,United States,MI,Michigan,Washtenaw,CHELSEA,48118
63502,United States,MI,Michigan,Oakland,CLARKSTON,48346
63527,United States,MI,Michigan,Oakland,CLARKSTON,48348
63552,United States,MI,Michigan,Oakland,CLAWSON,48017
63577,United States,MI,Michigan,Macomb,CLINTON TOWNSHIP,48035
63602,United States,MI,Michigan,Macomb,CLINTON TOWNSHIP,48036
63627,United States,MI,Michigan,Macomb,CLINTON TOWNSHIP,48038
63652,United States,MI,Michigan,Branch,COLDWATER,49036
63677,United States,MI,Michigan,Oakland,COMMERCE TOWNSHIP,48382
63702,United States,MI,Michigan,Genesee,DAVISON,48423
63727,United States,MI,Michigan,Wayne,DEARBORN,48124
63752,United States,MI,Michigan,Wayne,DEARBORN,48126
63777,United States,MI,Michigan,Wayne,DEARBORN,48128
63802,United States,MI,Michigan,Wayne,DEARBORN HEIGHTS,48125
63827,United States,MI,Michigan,Wayne,DEARBORN HEIGHTS,48127
63852,United States,MI,Michigan,Wayne,DETROIT,48201
63877,United States,MI,Michigan,Wayne,DETROIT,48202
63902,United States,MI,Michigan,Wayne,DETROIT,48208
63927,United States,MI,Michigan,Wayne,DETROIT,48209
63952,United States,MI,Michigan,Wayne,DETROIT,48212
63977,United States,MI,Michigan,Wayne,DETROIT,48214
64002,United States,MI,Michigan,Wayne,DETROIT,48219
64027,United States,MI,Michigan,Wayne,DETROIT,48224
64052,United States,MI,Michigan,Wayne,DETROIT,48226
64077,United States,MI,Michigan,Wayne,DETROIT,48227
64102,United States,MI,Michigan,Wayne,DETROIT,48235
64127,United States,MI,Michigan,Shiawassee,DURAND,48429
64152,United States,MI,Michigan,Kent,EAST GRAND RAPIDS,49546
64177,United States,MI,Michigan,Ingham,EAST LANSING,48823
64202,United States,MI,Michigan,Macomb,EASTPOINTE,48021
64227,United States,MI,Michigan,Cass,EDWARDSBURG,49112
64252,United States,MI,Michigan,Huron,ELKTON,48731
64277,United States,MI,Michigan,Delta,ESCANABA,49829
64302,United States,MI,Michigan,Oakland,FARMINGTON,48334
64327,United States,MI,Michigan,Oakland,FARMINGTON,48335
64352,United States,MI,Michigan,Oakland,FARMINGTON,48336
64377,United States,MI,Michigan,Oakland,FARMINGTON HILLS,48331
64402,United States,MI,Michigan,Oakland,FARMINGTON HILLS,48334
64427,United States,MI,Michigan,Oakland,FARMINGTON HILLS,48335
64452,United States,MI,Michigan,Oakland,FARMINGTON HILLS,48336
64477,United States,MI,Michigan,Oakland,FERNDALE,48220
64502,United States,MI,Michigan,Genesee,FLINT,48507
64527,United States,MI,Michigan,Genesee,FLINT,48532
64552,United States,MI,Michigan,Genesee,FLUSHING,48433
64577,United States,MI,Michigan,Saginaw,FRANKENMUTH,48734
64602,United States,MI,Michigan,Oakland,FRANKLIN,48025
64627,United States,MI,Michigan,Macomb,FRASER,48026
64652,United States,MI,Michigan,Newaygo,FREMONT,49412
64677,United States,MI,Michigan,Wayne,GARDEN CITY,48135
64702,United States,MI,Michigan,Genesee,GRAND BLANC,48439
64727,United States,MI,Michigan,Ottawa,GRAND HAVEN,49417
64752,United States,MI,Michigan,Kent,GRAND RAPIDS,49503
64777,United States,MI,Michigan,Kent,GRAND RAPIDS,49505
64802,United States,MI,Michigan,Kent,GRAND RAPIDS,49506
64827,United States,MI,Michigan,Kent,GRAND RAPIDS,49512
64852,United States,MI,Michigan,Kent,GRAND RAPIDS,49525
64877,United States,MI,Michigan,Kent,GRAND RAPIDS,49546
64902,United States,MI,Michigan,Kent,GRANDVILLE,49418
64927,United States,MI,Michigan,Crawford,GRAYLING,49738
64952,United States,MI,Michigan,Wayne,HAMTRAMCK,48212
64977,United States,MI,Michigan,Houghton,HANCOCK,49930
65002,United States,MI,Michigan,Huron,HARBOR BEACH,48441
65027,United States,MI,Michigan,Wayne,HARPER WOODS,48225
65052,United States,MI,Michigan,Barry,HASTINGS,49058
65077,United States,MI,Michigan,Hillsdale,HILLSDALE,49242
65102,United States,MI,Michigan,Ottawa,HOLLAND,49423
65127,United States,MI,Michigan,Roscommon,HOUGHTON LAKE,48629
65152,United States,MI,Michigan,Montcalm,HOWARD CITY,49329
65177,United States,MI,Michigan,Oakland,HUNTINGTON WOODS,48070
65202,United States,MI,Michigan,Lapeer,IMLAY CITY,48444
65227,United States,MI,Michigan,Dickinson,IRON MOUNTAIN,49801
65252,United States,MI,Michigan,Iron,IRON RIVER,49935
65277,United States,MI,Michigan,Gogebic,IRONWOOD,49938
65302,United States,MI,Michigan,Marquette,ISHPEMING,49849
65327,United States,MI,Michigan,Jackson,JACKSON,49201
65352,United States,MI,Michigan,Jackson,JACKSON,49202
65377,United States,MI,Michigan,Ottawa,JENISON,49428
65402,United States,MI,Michigan,Kalamazoo,KALAMAZOO,49001
65427,United States,MI,Michigan,Kalamazoo,KALAMAZOO,49002
65452,United States,MI,Michigan,Kalamazoo,KALAMAZOO,49007
65477,United States,MI,Michigan,Kalamazoo,KALAMAZOO,49009
65502,United States,MI,Michigan,Kent,KENTWOOD,49512
65527,United States,MI,Michigan,Baraga,L ANSE,49946
65552,United States,MI,Michigan,Monroe,LAMBERTVILLE,48144
65577,United States,MI,Michigan,Ingham,LANSING,48906
65602,United States,MI,Michigan,Ingham,LANSING,48910
65627,United States,MI,Michigan,Ingham,LANSING,48912
65652,United States,MI,Michigan,Lapeer,LAPEER,48446
65677,United States,MI,Michigan,Oakland,LATHRUP VILLAGE,48076
65702,United States,MI,Michigan,Wayne,LINCOLN PARK,48146
65727,United States,MI,Michigan,Wayne,LIVONIA,48150
65752,United States,MI,Michigan,Wayne,LIVONIA,48152
65777,United States,MI,Michigan,Wayne,LIVONIA,48154
65802,United States,MI,Michigan,Mason,LUDINGTON,49431
65827,United States,MI,Michigan,Oakland,MADISON HEIGHTS,48071
65852,United States,MI,Michigan,Schoolcraft,MANISTIQUE,49854
65877,United States,MI,Michigan,St. Clair,MARINE CITY,48039
65902,United States,MI,Michigan,Marquette,MARQUETTE,49855
65927,United States,MI,Michigan,Calhoun,MARSHALL,49068
65952,United States,MI,Michigan,St. Clair,MARYSVILLE,48040
65977,United States,MI,Michigan,Ingham,MASON,48854
66002,United States,MI,Michigan,Midland,MIDLAND,48640
66027,United States,MI,Michigan,Oakland,MILFORD,48381
66052,United States,MI,Michigan,Monroe,MONROE,48162
66077,United States,MI,Michigan,Macomb,MOUNT CLEMENS,48043
66102,United States,MI,Michigan,Isabella,MOUNT PLEASANT,48858
66127,United States,MI,Michigan,Muskegon,MUSKEGON,49441
66152,United States,MI,Michigan,Muskegon,MUSKEGON,49442
66177,United States,MI,Michigan,Muskegon,MUSKEGON,49444
66202,United States,MI,Michigan,Muskegon,MUSKEGON,49445
66227,United States,MI,Michigan,Macomb,NEW BALTIMORE,48047
66252,United States,MI,Michigan,Newaygo,NEWAYGO,49337
66277,United States,MI,Michigan,Luce,NEWBERRY,49868
66302,United States,MI,Michigan,Monroe,NEWPORT,48166
66327,United States,MI,Michigan,Berrien,NILES,49120
66352,United States,MI,Michigan,Oakland,NOVI,48375
66377,United States,MI,Michigan,Oakland,NOVI,48377
66402,United States,MI,Michigan,Oakland,OAK PARK,48237
66427,United States,MI,Michigan,Ingham,OKEMOS,48864
66452,United States,MI,Michigan,Ontonagon,ONTONAGON,49953
66477,United States,MI,Michigan,Shiawassee,OWOSSO,48867
66502,United States,MI,Michigan,Huron,PIGEON,48755
66527,United States,MI,Michigan,Wayne,PLYMOUTH,48170
66552,United States,MI,Michigan,St. Clair,PORT HURON,48060
66577,United States,MI,Michigan,Kalamazoo,PORTAGE,49002
66602,United States,MI,Michigan,Kalamazoo,PORTAGE,49024
66627,United States,MI,Michigan,Wayne,REDFORD,48239
66652,United States,MI,Michigan,Wayne,REDFORD,48240
66677,United States,MI,Michigan,Oakland,ROCHESTER,48307
66702,United States,MI,Michigan,Oakland,ROCHESTER HILLS,48307
66727,United States,MI,Michigan,Oakland,ROCHESTER HILLS,48309
66752,United States,MI,Michigan,Kent,ROCKFORD,49341
66777,United States,MI,Michigan,Macomb,ROMEO,48065
66802,United States,MI,Michigan,Macomb,ROSEVILLE,48066
66827,United States,MI,Michigan,Oakland,ROYAL OAK,48067
66852,United States,MI,Michigan,Oakland,ROYAL OAK,48073
66877,United States,MI,Michigan,Saginaw,SAGINAW,48602
66902,United States,MI,Michigan,Saginaw,SAGINAW,48603
66927,United States,MI,Michigan,Saginaw,SAGINAW,48604
66952,United States,MI,Michigan,,SAGINAW,48638
66977,United States,MI,Michigan,Macomb,SAINT CLAIR SHORES,48080
67002,United States,MI,Michigan,Macomb,SAINT CLAIR SHORES,48081
67027,United States,MI,Michigan,Berrien,SAINT JOE,49085
67052,United States,MI,Michigan,Berrien,SAINT JOSEPH,49085
67077,United States,MI,Michigan,Washtenaw,SALINE,48176
67102,United States,MI,Michigan,Chippewa,SAULT SAINTE MARIE,49783
67127,United States,MI,Michigan,Macomb,SHELBY TOWNSHIP,48317
67152,United States,MI,Michigan,Van Buren,SOUTH HAVEN,49090
67177,United States,MI,Michigan,,SOUTHFIELD,48033
67202,United States,MI,Michigan,Oakland,SOUTHFIELD,48034
67227,United States,MI,Michigan,Oakland,SOUTHFIELD,48075
67252,United States,MI,Michigan,Oakland,SOUTHFIELD,48076
67277,United States,MI,Michigan,Wayne,SOUTHGATE,48195
67302,United States,MI,Michigan,Macomb,ST HEIGHTS,48310
67327,United States,MI,Michigan,Macomb,ST HEIGHTS,48313
67352,United States,MI,Michigan,Arenac,STANDISH,48658
67377,United States,MI,Michigan,Macomb,STERLING HEIGHTS,48310
67402,United States,MI,Michigan,Macomb,STERLING HEIGHTS,48312
67427,United States,MI,Michigan,Macomb,STERLING HEIGHTS,48313
67452,United States,MI,Michigan,Macomb,STERLING HEIGHTS,48314
67477,United States,MI,Michigan,St. Joseph,STURGIS,49091
67502,United States,MI,Michigan,Iosco,TAWAS CITY,48764
67527,United States,MI,Michigan,Wayne,TAYLOR,48180
67552,United States,MI,Michigan,St. Joseph,THREE RIVERS,49093
67577,United States,MI,Michigan,Grand Traverse,TRAVERSE CITY,49685
67602,United States,MI,Michigan,Grand Traverse,TRAVERSE CITY,49686
67627,United States,MI,Michigan,Wayne,TRENTON,48183
67652,United States,MI,Michigan,Oakland,TROY,48083
67677,United States,MI,Michigan,Oakland,TROY,48084
67702,United States,MI,Michigan,Oakland,TROY,48085
67727,United States,MI,Michigan,Oakland,TROY,48098
67752,United States,MI,Michigan,Macomb,UTICA,48317
67777,United States,MI,Michigan,Oakland,W BLOOMFIELD,48322
67802,United States,MI,Michigan,Macomb,WARREN,48088
67827,United States,MI,Michigan,Macomb,WARREN,48089
67852,United States,MI,Michigan,Macomb,WARREN,48091
67877,United States,MI,Michigan,Macomb,WARREN,48092
67902,United States,MI,Michigan,Macomb,WARREN,48093
67927,United States,MI,Michigan,Oakland,WATERFORD,48327
67952,United States,MI,Michigan,Oakland,WATERFORD,48328
67977,United States,MI,Michigan,Oakland,WEST BLOOMFIELD,48322
68002,United States,MI,Michigan,Ogemaw,WEST BRANCH,48661
68027,United States,MI,Michigan,Wayne,WESTLAND,48185
68052,United States,MI,Michigan,Newaygo,WHITE CLOUD,49349
68077,United States,MI,Michigan,Oakland,WIXOM,48393
68102,United States,MI,Michigan,Wayne,WYANDOTTE,48192
68127,United States,MI,Michigan,Kent,WYOMING,49519
68152,United States,MI,Michigan,Washtenaw,YPSILANTI,48197
68177,United States,MI,Michigan,Washtenaw,YPSILANTI,48198
88027,United States,OH,Ohio,Hardin,ADA,45810
88052,United States,OH,Ohio,Summit,AKRON,44304
88077,United States,OH,Ohio,Summit,AKRON,44305
88102,United States,OH,Ohio,Summit,AKRON,44308
88127,United States,OH,Ohio,Summit,AKRON,44310
88152,United States,OH,Ohio,Summit,AKRON,44311
88177,United States,OH,Ohio,Summit,AKRON,44313
88202,United States,OH,Ohio,Summit,AKRON,44319
88227,United States,OH,Ohio,Summit,AKRON,44320
88252,United States,OH,Ohio,Summit,AKRON,44333
88277,United States,OH,Ohio,Stark,ALLIANCE,44601
88302,United States,OH,Ohio,Ashland,ASHLAND,44805
88327,United States,OH,Ohio,Ashtabula,ASHTABULA,44004
88352,United States,OH,Ohio,Athens,ATHENS,45701
88377,United States,OH,Ohio,Portage,AURORA,44202
88402,United States,OH,Ohio,Mahoning,AUSTINTOWN,44515
88427,United States,OH,Ohio,Belmont,BARNESVILLE,43713
88452,United States,OH,Ohio,Cuyahoga,BEACHWOOD,44122
88477,United States,OH,Ohio,Montgomery,BEAVER CREEK,45432
88502,United States,OH,Ohio,Montgomery,BEAVERCREEK,45432
88527,United States,OH,Ohio,Cuyahoga,BEDFORD HEIGHTS,44146
88552,United States,OH,Ohio,Belmont,BELLAIRE,43906
88577,United States,OH,Ohio,Greene,BELLBROOK,45305
88602,United States,OH,Ohio,Logan,BELLEFONTAINE,43311
88627,United States,OH,Ohio,Washington,BELPRE,45714
88652,United States,OH,Ohio,Hamilton,BLUE ASH,45242
88677,United States,OH,Ohio,Allen,BLUFFTON,45817
88702,United States,OH,Ohio,Mahoning,BOARDMAN,44512
88727,United States,OH,Ohio,Belmont,BRIDGEPORT,43912
88752,United States,OH,Ohio,Cuyahoga,BROOK PARK,44142
88777,United States,OH,Ohio,Williams,BRYAN,43506
88802,United States,OH,Ohio,Harrison,CADIZ,43907
88827,United States,OH,Ohio,Noble,CALDWELL,43724
88852,United States,OH,Ohio,Guernsey,CAMBRIDGE,43725
88877,United States,OH,Ohio,Mahoning,CANFIELD,44406
88902,United States,OH,Ohio,Stark,CANTON,44708
88927,United States,OH,Ohio,Stark,CANTON,44709
88952,United States,OH,Ohio,Stark,CANTON,44718
88977,United States,OH,Ohio,Carroll,CARROLLTON,44615
89002,United States,OH,Ohio,Mercer,CELINA,45822
89027,United States,OH,Ohio,Montgomery,CENTERVILLE,45458
89052,United States,OH,Ohio,Montgomery,CENTERVILLE,45459
89077,United States,OH,Ohio,Geauga,CHARDON,44024
89102,United States,OH,Ohio,Geauga,CHESTERLAND,44026
89127,United States,OH,Ohio,Ross,CHILLICOTHE,45601
89152,United States,OH,Ohio,Hamilton,CINCINNATI,45202
89177,United States,OH,Ohio,Hamilton,CINCINNATI,45206
89202,United States,OH,Ohio,Hamilton,CINCINNATI,45211
89227,United States,OH,Ohio,Hamilton,CINCINNATI,45212
89252,United States,OH,Ohio,Hamilton,CINCINNATI,45215
89277,United States,OH,Ohio,Hamilton,CINCINNATI,45225
89302,United States,OH,Ohio,Hamilton,CINCINNATI,45227
89327,United States,OH,Ohio,Hamilton,CINCINNATI,45229
89352,United States,OH,Ohio,Hamilton,CINCINNATI,45230
89377,United States,OH,Ohio,Hamilton,CINCINNATI,45236
89402,United States,OH,Ohio,Hamilton,CINCINNATI,45237
89427,United States,OH,Ohio,Hamilton,CINCINNATI,45240
89452,United States,OH,Ohio,Hamilton,CINCINNATI,45241
89477,United States,OH,Ohio,Hamilton,CINCINNATI,45242
89502,United States,OH,Ohio,Clermont,CINCINNATI,45245
89527,United States,OH,Ohio,Hamilton,CINCINNATI,45246
89552,United States,OH,Ohio,Hamilton,CINCINNATI,45247
89577,United States,OH,Ohio,Hamilton,CINCINNATI,45249
89602,United States,OH,Ohio,Hamilton,CINCINNATI,45251
89627,United States,OH,Ohio,Pickaway,CIRCLEVILLE,43113
89652,United States,OH,Ohio,Cuyahoga,CLEVELAND,44102
89677,United States,OH,Ohio,Cuyahoga,CLEVELAND,44107
89702,United States,OH,Ohio,Cuyahoga,CLEVELAND,44109
89727,United States,OH,Ohio,Cuyahoga,CLEVELAND,44110
89752,United States,OH,Ohio,Cuyahoga,CLEVELAND,44111
89777,United States,OH,Ohio,Cuyahoga,CLEVELAND,44115
89802,United States,OH,Ohio,Cuyahoga,CLEVELAND,44118
89827,United States,OH,Ohio,Cuyahoga,CLEVELAND,44120
89852,United States,OH,Ohio,Cuyahoga,CLEVELAND,44128
89877,United States,OH,Ohio,Cuyahoga,CLEVELAND,44135
89902,United States,OH,Ohio,Cuyahoga,CLEVELAND HEIGHTS,44118
89927,United States,OH,Ohio,Sandusky,CLYDE,43410
89952,United States,OH,Ohio,Lawrence,COAL GROVE,45638
89977,United States,OH,Ohio,Columbiana,COLUMBIANA,44408
90002,United States,OH,Ohio,Franklin,COLUMBUS,43085
90027,United States,OH,Ohio,Franklin,COLUMBUS,43203
90052,United States,OH,Ohio,Franklin,COLUMBUS,43204
90077,United States,OH,Ohio,Franklin,COLUMBUS,43205
90102,United States,OH,Ohio,Franklin,COLUMBUS,43207
90127,United States,OH,Ohio,Franklin,COLUMBUS,43209
90152,United States,OH,Ohio,Franklin,COLUMBUS,43211
90177,United States,OH,Ohio,Franklin,COLUMBUS,43212
90202,United States,OH,Ohio,Franklin,COLUMBUS,43213
90227,United States,OH,Ohio,Franklin,COLUMBUS,43214
90252,United States,OH,Ohio,Franklin,COLUMBUS,43215
90277,United States,OH,Ohio,Franklin,COLUMBUS,43219
90302,United States,OH,Ohio,Franklin,COLUMBUS,43220
90327,United States,OH,Ohio,Franklin,COLUMBUS,43221
90352,United States,OH,Ohio,Franklin,COLUMBUS,43223
90377,United States,OH,Ohio,Franklin,COLUMBUS,43224
90402,United States,OH,Ohio,Franklin,COLUMBUS,43227
90427,United States,OH,Ohio,Franklin,COLUMBUS,43228
90452,United States,OH,Ohio,Franklin,COLUMBUS,43229
90477,United States,OH,Ohio,Franklin,COLUMBUS,43230
90502,United States,OH,Ohio,Franklin,COLUMBUS,43231
90527,United States,OH,Ohio,Franklin,COLUMBUS,43232
90552,United States,OH,Ohio,Franklin,COLUMBUS,43235
90577,United States,OH,Ohio,Franklin,COLUMBUS,43240
90602,United States,OH,Ohio,Franklin,COLUMBUS,43299
90627,United States,OH,Ohio,Lake,CONCORD,44077
90652,United States,OH,Ohio,Athens,COOLVILLE,45723
90677,United States,OH,Ohio,Coshocton,COSHOCTON,43812
90702,United States,OH,Ohio,Auglaize,CRIDERSVILLE,45806
90727,United States,OH,Ohio,Summit,CUYAHOGA FALLS,44221
90752,United States,OH,Ohio,Summit,CUYAHOGA FALLS,44223
90777,United States,OH,Ohio,Wayne,DALTON,44618
90802,United States,OH,Ohio,Montgomery,DAYTON,45402
90827,United States,OH,Ohio,Montgomery,DAYTON,45404
90852,United States,OH,Ohio,Montgomery,DAYTON,45405
90877,United States,OH,Ohio,Montgomery,DAYTON,45406
90902,United States,OH,Ohio,Montgomery,DAYTON,45414
90927,United States,OH,Ohio,Montgomery,DAYTON,45415
90952,United States,OH,Ohio,Montgomery,DAYTON,45416
90977,United States,OH,Ohio,Montgomery,DAYTON,45419
91002,United States,OH,Ohio,Montgomery,DAYTON,45422
91027,United States,OH,Ohio,Montgomery,DAYTON,45429
91052,United States,OH,Ohio,Montgomery,DAYTON,45432
91077,United States,OH,Ohio,Montgomery,DAYTON,45439
91102,United States,OH,Ohio,Montgomery,DAYTON,45440
91127,United States,OH,Ohio,Montgomery,DAYTON,45449
91152,United States,OH,Ohio,Montgomery,DAYTON,45458
91177,United States,OH,Ohio,Montgomery,DAYTON,45459
91202,United States,OH,Ohio,Defiance,DEFIANCE,43512
91227,United States,OH,Ohio,Delaware,DELAWARE,43015
91252,United States,OH,Ohio,Fulton,DELTA,43515
91277,United States,OH,Ohio,Tuscarawas,DOVER,44622
91302,United States,OH,Ohio,Franklin,DUBLIN,43016
91327,United States,OH,Ohio,Franklin,DUBLIN,43017
91352,United States,OH,Ohio,Columbiana,EAST LIVERPOOL,43920
91377,United States,OH,Ohio,Columbiana,EAST PALESTINE,44413
91402,United States,OH,Ohio,Preble,EATON,45320
91427,United States,OH,Ohio,Lorain,ELYRIA,44035
91452,United States,OH,Ohio,Cuyahoga,EUCLID,44132
91477,United States,OH,Ohio,Butler,FAIRFIELD,45014
91502,United States,OH,Ohio,Summit,FAIRLAWN,44333
91527,United States,OH,Ohio,Cuyahoga,FAIRVIEW PARK,44126
91552,United States,OH,Ohio,Hancock,FINDLAY,45840
91577,United States,OH,Ohio,Sandusky,FREMONT,43420
91602,United States,OH,Ohio,Franklin,GAHANNA,43230
91627,United States,OH,Ohio,Crawford,GALION,44833
91652,United States,OH,Ohio,Gallia,GALLIPOLIS,45631
91677,United States,OH,Ohio,Brown,GEORGETOWN,45121
91702,United States,OH,Ohio,Trumbull,GIRARD,44420
91727,United States,OH,Ohio,Lorain,GRAFTON,44044
91752,United States,OH,Ohio,Darke,GREENVILLE,45331
91777,United States,OH,Ohio,Franklin,GROVE CITY,43123
91802,United States,OH,Ohio,Franklin,GROVEPORT,43125
91827,United States,OH,Ohio,Butler,HAMILTON,45011
91852,United States,OH,Ohio,Hamilton,HARRISON,45030
91877,United States,OH,Ohio,Stark,HARTVILLE,44632
91902,United States,OH,Ohio,Licking,HEATH,43056
91927,United States,OH,Ohio,Cuyahoga,HIGHLAND HEIGHTS,44143
91952,United States,OH,Ohio,Franklin,HILLIARD,43026
91977,United States,OH,Ohio,Highland,HILLSBORO,45133
92002,United States,OH,Ohio,Lucas,HOLLAND,43528
92027,United States,OH,Ohio,Montgomery,HUBER HEIGHTS,45424
92052,United States,OH,Ohio,Cuyahoga,INDEPENDENCE,44131
92077,United States,OH,Ohio,Lawrence,IRONTON,45638
92102,United States,OH,Ohio,Portage,KENT,44240
92127,United States,OH,Ohio,Montgomery,KETTERING,45419
92152,United States,OH,Ohio,Montgomery,KETTERING,45429
92177,United States,OH,Ohio,Montgomery,KETTERING,45439
92202,United States,OH,Ohio,Trumbull,KINSMAN,44428
92227,United States,OH,Ohio,Cuyahoga,LAKEWOOD,44107
92252,United States,OH,Ohio,Fairfield,LANCASTER,43130
92277,United States,OH,Ohio,Warren,LEBANON,45036
92302,United States,OH,Ohio,Allen,LIMA,45801
92327,United States,OH,Ohio,Allen,LIMA,45805
92352,United States,OH,Ohio,Auglaize,LIMA,45806
92377,United States,OH,Ohio,Madison,LONDON,43140
92402,United States,OH,Ohio,Lorain,LORAIN,44053
92427,United States,OH,Ohio,Clermont,LOVELAND,45140
92452,United States,OH,Ohio,Scioto,LUCASVILLE,45648
92477,United States,OH,Ohio,Cuyahoga,LYNDHURST,44124
92502,United States,OH,Ohio,Warren,MAINEVILLE,45039
92527,United States,OH,Ohio,Adams,MANCHESTER,45144
92552,United States,OH,Ohio,Richland,MANSFIELD,44902
92577,United States,OH,Ohio,Richland,MANSFIELD,44905
92602,United States,OH,Ohio,Richland,MANSFIELD,44906
92627,United States,OH,Ohio,Cuyahoga,MAPLE HEIGHTS,44137
92652,United States,OH,Ohio,Washington,MARIETTA,45750
92677,United States,OH,Ohio,Marion,MARION,43302
92702,United States,OH,Ohio,Union,MARYSVILLE,43040
92727,United States,OH,Ohio,Warren,MASON,45040
92752,United States,OH,Ohio,Stark,MASSILLON,44646
92777,United States,OH,Ohio,Lucas,MAUMEE,43537
92802,United States,OH,Ohio,Cuyahoga,MAYFIELD HEIGHTS,44124
92827,United States,OH,Ohio,Vinton,MCARTHUR,45651
92852,United States,OH,Ohio,Medina,MEDINA,44256
92877,United States,OH,Ohio,Lake,MENTOR,44060
92902,United States,OH,Ohio,Montgomery,MIAMISBURG,45342
92927,United States,OH,Ohio,Cuyahoga,MIDDLEBURG HEIGHTS,44130
92952,United States,OH,Ohio,Butler,MIDDLETOWN,45042
92977,United States,OH,Ohio,Clermont,MILFORD,45150
93002,United States,OH,Ohio,Butler,MONROE,45050
93027,United States,OH,Ohio,Montgomery,MORAINE,45439
93052,United States,OH,Ohio,Morrow,MOUNT GILEAD,43338
93077,United States,OH,Ohio,Brown,MOUNT ORAB,45154
93102,United States,OH,Ohio,Madison,MOUNT STERLING,43143
93127,United States,OH,Ohio,Knox,MOUNT VERNON,43050
93152,United States,OH,Ohio,Henry,NAPOLEON,43545
93177,United States,OH,Ohio,Scioto,NEW BOSTON,45662
93202,United States,OH,Ohio,Clark,NEW CARLISLE,45344
93227,United States,OH,Ohio,Clermont,NEW RICHMOND,45157
93252,United States,OH,Ohio,Licking,NEWARK,43055
93277,United States,OH,Ohio,Geauga,NEWBURY,44065
93302,United States,OH,Ohio,Trumbull,NEWTON FALLS,44444
93327,United States,OH,Ohio,Stark,NORTH CANTON,44720
93352,United States,OH,Ohio,Cuyahoga,NORTH ROYALTON,44133
93377,United States,OH,Ohio,Huron,NORWALK,44857
93402,United States,OH,Ohio,Ottawa,OAK HARBOR,43449
93427,United States,OH,Ohio,Lorain,OBERLIN,44074
93452,United States,OH,Ohio,Putnam,OTTAWA,45875
93477,United States,OH,Ohio,Lake,PAINESVILLE,44077
93502,United States,OH,Ohio,Cuyahoga,PARMA,44129
93527,United States,OH,Ohio,Cuyahoga,PARMA,44130
93552,United States,OH,Ohio,Cuyahoga,PARMA,44134
93577,United States,OH,Ohio,Paulding,PAULDING,45879
93602,United States,OH,Ohio,Wood,PERRYSBURG,43551
93627,United States,OH,Ohio,Mahoning,POLAND,44514
93652,United States,OH,Ohio,Meigs,POMEROY,45769
93677,United States,OH,Ohio,Ottawa,PORT CLINTON,43452
93702,United States,OH,Ohio,Scioto,PORTSMOUTH,45662
93727,United States,OH,Ohio,Lawrence,PROCTORVILLE,45669
93752,United States,OH,Ohio,Portage,RAVENNA,44266
93777,United States,OH,Ohio,Franklin,REYNOLDSBURG,43068
93802,United States,OH,Ohio,Cuyahoga,RICHMOND HEIGHTS,44143
93827,United States,OH,Ohio,Brown,RIPLEY,45167
93852,United States,OH,Ohio,Cuyahoga,ROCKY RIVER,44116
93877,United States,OH,Ohio,Summit,SAGAMORE HILLS,44067
93902,United States,OH,Ohio,Belmont,SAINT CLAIRSVILLE,43950
93927,United States,OH,Ohio,Auglaize,SAINT MARYS,45885
93952,United States,OH,Ohio,Columbiana,SALEM,44460
93977,United States,OH,Ohio,Erie,SANDUSKY,44870
94002,United States,OH,Ohio,Cuyahoga,SHAKER HEIGHTS,44120
94027,United States,OH,Ohio,Cuyahoga,SHAKER HEIGHTS,44122
94052,United States,OH,Ohio,Richland,SHELBY,44875
94077,United States,OH,Ohio,Shelby,SIDNEY,45365
94102,United States,OH,Ohio,Cuyahoga,SOLON,44139
94127,United States,OH,Ohio,Cuyahoga,SOUTH EUCLID,44118
94152,United States,OH,Ohio,Cuyahoga,SOUTH EUCLID,44121
94177,United States,OH,Ohio,Lawrence,SOUTH POINT,45680
94202,United States,OH,Ohio,Scioto,SOUTH WEBSTER,45682
94227,United States,OH,Ohio,Warren,SPRINGBORO,45066
94252,United States,OH,Ohio,Clark,SPRINGFIELD,45503
94277,United States,OH,Ohio,Clark,SPRINGFIELD,45504
94302,United States,OH,Ohio,Auglaize,ST MARYS,45885
94327,United States,OH,Ohio,Jefferson,STEUBENVILLE,43952
94352,United States,OH,Ohio,Summit,STOW,44224
94377,United States,OH,Ohio,Cuyahoga,STRONGSVILLE,44136
94402,United States,OH,Ohio,Lucas,SYLVANIA,43560
94427,United States,OH,Ohio,Seneca,TIFFIN,44883
94452,United States,OH,Ohio,Miami,TIPP CITY,45371
94477,United States,OH,Ohio,Lucas,TOLEDO,43605
94502,United States,OH,Ohio,Lucas,TOLEDO,43606
94527,United States,OH,Ohio,Lucas,TOLEDO,43608
94552,United States,OH,Ohio,Lucas,TOLEDO,43612
94577,United States,OH,Ohio,Lucas,TOLEDO,43614
94602,United States,OH,Ohio,Lucas,TOLEDO,43615
94627,United States,OH,Ohio,Lucas,TOLEDO,43617
94652,United States,OH,Ohio,Lucas,TOLEDO,43623
94677,United States,OH,Ohio,Lucas,TOLEDO,43624
94702,United States,OH,Ohio,Jefferson,TORONTO,43964
94727,United States,OH,Ohio,Miami,TROY,45373
94752,United States,OH,Ohio,Tuscarawas,UHRICHSVILLE,44683
94777,United States,OH,Ohio,Summit,UNIONTOWN,44685
94802,United States,OH,Ohio,Wyandot,UPPER SANDUSKY,43351
94827,United States,OH,Ohio,Cuyahoga,VALLEY VIEW,44125
94852,United States,OH,Ohio,Van Wert,VAN WERT,45891
94877,United States,OH,Ohio,Montgomery,VANDALIA,45377
94902,United States,OH,Ohio,Medina,WADSWORTH,44281
94927,United States,OH,Ohio,Auglaize,WAPAKONETA,45895
94952,United States,OH,Ohio,Trumbull,WARREN,44483
94977,United States,OH,Ohio,Cuyahoga,WARRENSVILLE HTS,44128
95002,United States,OH,Ohio,Fayette,WASHINGTON CH,43160
95027,United States,OH,Ohio,Pike,WAVERLY,45690
95052,United States,OH,Ohio,Jackson,WELLSTON,45692
95077,United States,OH,Ohio,Montgomery,WEST CARROLLTON,45449
95102,United States,OH,Ohio,Butler,WEST CHESTER,45069
95127,United States,OH,Ohio,Logan,WEST LIBERTY,43357
95152,United States,OH,Ohio,Adams,WEST UNION,45693
95177,United States,OH,Ohio,Franklin,WESTERVILLE,43081
95202,United States,OH,Ohio,Delaware,WESTERVILLE,43082
95227,United States,OH,Ohio,Cuyahoga,WESTLAKE,44145
95252,United States,OH,Ohio,Scioto,WHEELERSBURG,45694
95277,United States,OH,Ohio,Franklin,WHITEHALL,43213
95302,United States,OH,Ohio,Lake,WILLOUGHBY,44094
95327,United States,OH,Ohio,Clinton,WILMINGTON,45177
95352,United States,OH,Ohio,Adams,WINCHESTER,45697
95377,United States,OH,Ohio,Jefferson,WINTERSVILLE,43953
95402,United States,OH,Ohio,Wayne,WOOSTER,44691
95427,United States,OH,Ohio,Franklin,WORTHINGTON,43085
95452,United States,OH,Ohio,Mahoning,YOUNGSTOWN,44503
95477,United States,OH,Ohio,Mahoning,YOUNGSTOWN,44505
95502,United States,OH,Ohio,Muskingum,ZANESVILLE,43701
