LocationNO,Country,State_Abbv,State,County,City,ZipCode
4027,United States,AR,Arkansas,Clark,ARKADELPHIA,71923
4052,United States,AR,Arkansas,Sharp,ASH FLAT,72513
4077,United States,AR,Arkansas,Little River,ASHDOWN,71822
4102,United States,AR,Arkansas,Woodruff,AUGUSTA,72006
4127,United States,AR,Arkansas,Independence,BATESVILLE,72501
4152,United States,AR,Arkansas,Saline,BENTON,72015
4177,United States,AR,Arkansas,Carroll,BERRYVILLE,72616
4202,United States,AR,Arkansas,Mississippi,BLYTHEVILLE,72315
4227,United States,AR,Arkansas,Mississippi,BLYTHEVILLE,72316
4252,United States,AR,Arkansas,Logan,BOONEVILLE,72927
4277,United States,AR,Arkansas,Monroe,BRINKLEY,72021
4302,United States,AR,Arkansas,Saline,BRYANT,72022
4327,United States,AR,Arkansas,Izard,CALICO ROCK,72519
4352,United States,AR,Arkansas,Ouachita,CAMDEN,71701
4377,United States,AR,Arkansas,Johnson,CLARKSVILLE,72830
4402,United States,AR,Arkansas,Van Buren,CLINTON,72031
4427,United States,AR,Arkansas,Faulkner,CONWAY,72032
4452,United States,AR,Arkansas,Faulkner,CONWAY,72034
4477,United States,AR,Arkansas,Baxter,COTTER,72626
4502,United States,AR,Arkansas,Ashley,CROSSETT,71635
4527,United States,AR,Arkansas,Yell,DANVILLE,72833
4552,United States,AR,Arkansas,Yell,DARDANELLE,72834
4577,United States,AR,Arkansas,Sevier,DE QUEEN,71832
4602,United States,AR,Arkansas,Arkansas,DE WITT,72042
4627,United States,AR,Arkansas,Prairie,DES ARC,72040
4652,United States,AR,Arkansas,Desha,DUMAS,71639
4677,United States,AR,Arkansas,Union,EL DORADO,71730
4702,United States,AR,Arkansas,Carroll,EUREKA SPRINGS,72632
4727,United States,AR,Arkansas,Washington,FAYETTEVILLE,72703
4752,United States,AR,Arkansas,Dallas,FORDYCE,71742
4777,United States,AR,Arkansas,St. Francis,FORREST CITY,72335
4802,United States,AR,Arkansas,Sebastian,FORT SMITH,72902
4827,United States,AR,Arkansas,Sebastian,FORT SMITH,72903
4852,United States,AR,Arkansas,Ashley,HAMBURG,71646
4877,United States,AR,Arkansas,Calhoun,HAMPTON,71744
4902,United States,AR,Arkansas,Poinsett,HARRISBURG,72432
4927,United States,AR,Arkansas,Boone,HARRISON,72601
4952,United States,AR,Arkansas,Cleburne,HEBER SPRINGS,72543
4977,United States,AR,Arkansas,Phillips,HELENA,72342
5002,United States,AR,Arkansas,Sharp,HIGHLAND,72542
5027,United States,AR,Arkansas,Hempstead,HOPE,71801
5052,United States,AR,Arkansas,Garland,HOT SPRINGS,71901
5077,United States,AR,Arkansas,Garland,HOT SPRINGS,71913
5102,United States,AR,Arkansas,Garland,HOT SPRINGS NATIONAL,71913
5127,United States,AR,Arkansas,Pulaski,JACKSONVILLE,72076
5152,United States,AR,Arkansas,Newton,JASPER,72641
5177,United States,AR,Arkansas,Craighead,JONESBORO,72401
5202,United States,AR,Arkansas,Chicot,LAKE VILLAGE,71653
5227,United States,AR,Arkansas,Lafayette,LEWISVILLE,71845
5252,United States,AR,Arkansas,Pulaski,LITTLE ROCK,72202
5277,United States,AR,Arkansas,Pulaski,LITTLE ROCK,72204
5302,United States,AR,Arkansas,Pulaski,LITTLE ROCK,72205
5327,United States,AR,Arkansas,Pulaski,LITTLE ROCK,72210
5352,United States,AR,Arkansas,Pulaski,LITTLE ROCK,72211
5377,United States,AR,Arkansas,Pulaski,LITTLE ROCK,72212
5402,United States,AR,Arkansas,Lonoke,LONOKE,72086
5427,United States,AR,Arkansas,Columbia,MAGNOLIA,71753
5452,United States,AR,Arkansas,Hot Spring,MALVERN,72104
5477,United States,AR,Arkansas,Lee,MARIANNA,72360
5502,United States,AR,Arkansas,Searcy,MARSHALL,72650
5527,United States,AR,Arkansas,Woodruff,MC CRORY,72101
5552,United States,AR,Arkansas,Desha,MCGEHEE,71654
5577,United States,AR,Arkansas,Izard,MELBOURNE,72556
5602,United States,AR,Arkansas,Polk,MENA,71953
5627,United States,AR,Arkansas,Drew,MONTICELLO,71655
5652,United States,AR,Arkansas,Drew,MONTICELLO,71657
5677,United States,AR,Arkansas,Conway,MORRILTON,72110
5702,United States,AR,Arkansas,Montgomery,MOUNT IDA,71957
5727,United States,AR,Arkansas,Baxter,MOUNTAIN HOME,72653
5752,United States,AR,Arkansas,Stone,MOUNTAIN VIEW,72560
5777,United States,AR,Arkansas,Pike,MURFREESBORO,71958
5802,United States,AR,Arkansas,Howard,NASHVILLE,71852
5827,United States,AR,Arkansas,Jackson,NEWPORT,72112
5852,United States,AR,Arkansas,Mississippi,OSCEOLA,72370
5877,United States,AR,Arkansas,Franklin,OZARK,72949
5902,United States,AR,Arkansas,Greene,PARAGOULD,72450
5927,United States,AR,Arkansas,Greene,PARAGOULD,72451
5952,United States,AR,Arkansas,Logan,PARIS,72855
5977,United States,AR,Arkansas,Perry,PERRYVILLE,72126
6002,United States,AR,Arkansas,Clay,PIGGOTT,72454
6027,United States,AR,Arkansas,Jefferson,PINE BLUFF,71601
6052,United States,AR,Arkansas,Jefferson,PINE BLUFF,71603
6077,United States,AR,Arkansas,Randolph,POCAHONTAS,72455
6102,United States,AR,Arkansas,Nevada,PRESCOTT,71857
6127,United States,AR,Arkansas,Cleveland,RISON,71665
6152,United States,AR,Arkansas,Benton,ROGERS,72756
6177,United States,AR,Arkansas,Pope,RUSSELLVILLE,72801
6202,United States,AR,Arkansas,Fulton,SALEM,72576
6227,United States,AR,Arkansas,White,SEARCY,72143
6252,United States,AR,Arkansas,Grant,SHERIDAN,72150
6277,United States,AR,Arkansas,Washington,SPRINGDALE,72762
6302,United States,AR,Arkansas,Washington,SPRINGDALE,72764
6327,United States,AR,Arkansas,Lincoln,STAR CITY,71667
6352,United States,AR,Arkansas,Arkansas,STUTTGART,72160
6377,United States,AR,Arkansas,Miller,TEXARKANA,71854
6402,United States,AR,Arkansas,Poinsett,TRUMANN,72472
6427,United States,AR,Arkansas,Crawford,VAN BUREN,72956
6452,United States,AR,Arkansas,Scott,WALDRON,72958
6477,United States,AR,Arkansas,Lawrence,WALNUT RIDGE,72476
6502,United States,AR,Arkansas,Bradley,WARREN,71671
6527,United States,AR,Arkansas,Phillips,WEST HELENA,72390
6552,United States,AR,Arkansas,Crittenden,WEST MEMPHIS,72301
6577,United States,AR,Arkansas,Cross,WYNNE,72396
6602,United States,AR,Arkansas,Marion,YELLVILLE,72687
55127,United States,LA,Louisiana,Vermilion,ABBEVILLE,70510
55152,United States,LA,Louisiana,Rapides,ALEXANDRIA,71301
55177,United States,LA,Louisiana,Rapides,ALEXANDRIA,71303
55202,United States,LA,Louisiana,Bienville,ARCADIA,71001
55227,United States,LA,Louisiana,East Baton Rouge,BAKER,70714
55252,United States,LA,Louisiana,Evangeline,BASILE,70515
55277,United States,LA,Louisiana,East Baton Rouge,BATON ROUGE,70806
55302,United States,LA,Louisiana,East Baton Rouge,BATON ROUGE,70809
55327,United States,LA,Louisiana,East Baton Rouge,BATON ROUGE,70810
55352,United States,LA,Louisiana,East Baton Rouge,BATON ROUGE,70816
55377,United States,LA,Louisiana,East Baton Rouge,BATON ROUGE,70817
55402,United States,LA,Louisiana,East Baton Rouge,BATON ROUGE,70818
55427,United States,LA,Louisiana,Washington,BOGALUSA,70427
55452,United States,LA,Louisiana,Bossier,BOSSIER CITY,71111
55477,United States,LA,Louisiana,St. Martin,BREAUX BRIDGE,70517
55502,United States,LA,Louisiana,Avoyelles,BUNKIE,71322
55527,United States,LA,Louisiana,East Feliciana,CLINTON,70722
55552,United States,LA,Louisiana,Red River,COUSHATTA,71019
55577,United States,LA,Louisiana,St. Tammany,COVINGTON,70433
55602,United States,LA,Louisiana,Acadia,CROWLEY,70526
55627,United States,LA,Louisiana,Lafourche,CUT OFF,70345
55652,United States,LA,Louisiana,Richland,DELHI,71232
55677,United States,LA,Louisiana,Livingston,DENHAM SPRINGS,70726
55702,United States,LA,Louisiana,Calcasieu,DEQUINCY,70633
55727,United States,LA,Louisiana,Beauregard,DERIDDER,70634
55752,United States,LA,Louisiana,Ascension,DONALDSONVILLE,70346
55777,United States,LA,Louisiana,St. Landry,EUNICE,70535
55802,United States,LA,Louisiana,Union,FARMERVILLE,71241
55827,United States,LA,Louisiana,St. Mary,FRANKLIN,70538
55852,United States,LA,Louisiana,Ascension,GONZALES,70737
55877,United States,LA,Louisiana,Jefferson,GRETNA,70053
55902,United States,LA,Louisiana,Jefferson,GRETNA,70056
55927,United States,LA,Louisiana,Tangipahoa,HAMMOND,70401
55952,United States,LA,Louisiana,Tangipahoa,HAMMOND,70403
55977,United States,LA,Louisiana,Jefferson,HARAHAN,70123
56002,United States,LA,Louisiana,Jefferson,HARVEY,70058
56027,United States,LA,Louisiana,Jackson,HODGE,71247
56052,United States,LA,Louisiana,Claiborne,HOMER,71040
56077,United States,LA,Louisiana,Terrebonne,HOUMA,70360
56102,United States,LA,Louisiana,La Salle,JENA,71342
56127,United States,LA,Louisiana,Jefferson Davis,JENNINGS,70546
56152,United States,LA,Louisiana,Catahoula,JONESVILLE,71343
56177,United States,LA,Louisiana,Jefferson,KENNER,70062
56202,United States,LA,Louisiana,Jefferson,KENNER,70065
56227,United States,LA,Louisiana,Allen,KINDER,70648
56252,United States,LA,Louisiana,St. John the Baptist,LA PLACE,70068
56277,United States,LA,Louisiana,Lafayette,LAFAYETTE,70501
56302,United States,LA,Louisiana,Lafayette,LAFAYETTE,70503
56327,United States,LA,Louisiana,Lafayette,LAFAYETTE,70506
56352,United States,LA,Louisiana,Lafayette,LAFAYETTE,70508
56377,United States,LA,Louisiana,Calcasieu,LAKE CHARLES,70601
56402,United States,LA,Louisiana,Calcasieu,LAKE CHARLES,70605
56427,United States,LA,Louisiana,Calcasieu,LAKE CHARLES,70607
56452,United States,LA,Louisiana,Vernon,LEESVILLE,71446
56477,United States,LA,Louisiana,St. Tammany,MANDEVILLE,70471
56502,United States,LA,Louisiana,Richland,MANGHAM,71259
56527,United States,LA,Louisiana,De Soto,MANSFIELD,71052
56552,United States,LA,Louisiana,Avoyelles,MARKSVILLE,71351
56577,United States,LA,Louisiana,Jefferson,METAIRIE,70001
56602,United States,LA,Louisiana,Jefferson,METAIRIE,70002
56627,United States,LA,Louisiana,Jefferson,METAIRIE,70005
56652,United States,LA,Louisiana,Webster,MINDEN,71055
56677,United States,LA,Louisiana,Ouachita,MONROE,71201
56702,United States,LA,Louisiana,Ouachita,MONROE,71203
56727,United States,LA,Louisiana,St. Mary,MORGAN CITY,70380
56752,United States,LA,Louisiana,Natchitoches,NATCHITOCHES,71457
56777,United States,LA,Louisiana,Iberia,NEW IBERIA,70560
56802,United States,LA,Louisiana,Orleans,NEW ORLEANS,70115
56827,United States,LA,Louisiana,Orleans,NEW ORLEANS,70119
56852,United States,LA,Louisiana,Orleans,NEW ORLEANS,70125
56877,United States,LA,Louisiana,Orleans,NEW ORLEANS,70126
56902,United States,LA,Louisiana,Orleans,NEW ORLEANS,70127
56927,United States,LA,Louisiana,Orleans,NEW ORLEANS,70130
56952,United States,LA,Louisiana,Pointe Coupee,NEW ROADS,70760
56977,United States,LA,Louisiana,Tensas,NEWELLTON,71357
57002,United States,LA,Louisiana,West Carroll,OAK GROVE,71263
57027,United States,LA,Louisiana,Allen,OAKDALE,71463
57052,United States,LA,Louisiana,St. Landry,OPELOUSAS,70570
57077,United States,LA,Louisiana,Iberville,PLAQUEMINE,70764
57102,United States,LA,Louisiana,Tangipahoa,PONCHATOULA,70454
57127,United States,LA,Louisiana,Lafourche,RACELAND,70394
57152,United States,LA,Louisiana,Richland,RAYVILLE,71269
57177,United States,LA,Louisiana,Lincoln,RUSTON,71270
57202,United States,LA,Louisiana,Caddo,SHREVEPORT,71101
57227,United States,LA,Louisiana,Caddo,SHREVEPORT,71103
57252,United States,LA,Louisiana,Caddo,SHREVEPORT,71105
57277,United States,LA,Louisiana,Caddo,SHREVEPORT,71106
57302,United States,LA,Louisiana,Caddo,SHREVEPORT,71115
57327,United States,LA,Louisiana,Webster,SIBLEY,71073
57352,United States,LA,Louisiana,St. Tammany,SLIDELL,70458
57377,United States,LA,Louisiana,St. Tammany,SLIDELL,70461
57402,United States,LA,Louisiana,St. Charles,ST ROSE,70087
57427,United States,LA,Louisiana,Calcasieu,SULPHUR,70663
57452,United States,LA,Louisiana,Madison,TALLULAH,71282
57477,United States,LA,Louisiana,Jefferson,TERRYTOWN,70056
57502,United States,LA,Louisiana,Lafourche,THIBODAUX,70301
57527,United States,LA,Louisiana,Concordia,VIDALIA,71373
57552,United States,LA,Louisiana,Ouachita,WEST MONROE,71291
57577,United States,LA,Louisiana,Ouachita,WEST MONROE,71292
57602,United States,LA,Louisiana,Winn,WINNFIELD,71483
57627,United States,LA,Louisiana,Franklin,WINNSBORO,71295
57652,United States,LA,Louisiana,East Baton Rouge,ZACHARY,70791
82227,United States,NJ,New Jersey,Somerset,BASKING RIDGE,7920
82252,United States,NJ,New Jersey,Hudson,BAYONNE,7002
82377,United States,NJ,New Jersey,Union,CLARK,7066
82402,United States,NJ,New Jersey,Passaic,CLIFTON,7012
82452,United States,NJ,New Jersey,Union,ELIZABETH,7208
82477,United States,NJ,New Jersey,Bergen,ENGLEWOOD,7631
82527,United States,NJ,New Jersey,Bergen,HACKENSACK,7601
82552,United States,NJ,New Jersey,Hudson,JERSEY CITY,7302
82577,United States,NJ,New Jersey,Hudson,JERSEY CITY,7306
82652,United States,NJ,New Jersey,Morris,MORRISTOWN,7960
82677,United States,NJ,New Jersey,Morris,MORRISTOWN,7962
82727,United States,NJ,New Jersey,Monmouth,NEPTUNE,7753
82777,United States,NJ,New Jersey,Bergen,PARAMUS,7652
82802,United States,NJ,New Jersey,Morris,POMPTON PLAINS,7444
82827,United States,NJ,New Jersey,Bergen,ROCHELLE PARK,7662
82927,United States,NJ,New Jersey,Sussex,SPARTA,7871
82952,United States,NJ,New Jersey,Sussex,SUSSEX,7461
82977,United States,NJ,New Jersey,Bergen,TEANECK,7666
83002,United States,NJ,New Jersey,Monmouth,TINTON FALLS,7724
83027,United States,NJ,New Jersey,Monmouth,TINTON FALLS,7753
83077,United States,NJ,New Jersey,Passaic,TOTOWA,7511
83127,United States,NJ,New Jersey,Essex,VERONA,7044
83202,United States,NJ,New Jersey,Warren,WASHINGTON,7882
83227,United States,NJ,New Jersey,Essex,WEST ORANGE,7052
95527,United States,OK,Oklahoma,Pontotoc,ADA,74820
95552,United States,OK,Oklahoma,Pontotoc,ALLEN,74825
95577,United States,OK,Oklahoma,Jackson,ALTUS,73521
95602,United States,OK,Oklahoma,Pushmataha,ANTLERS,74523
95627,United States,OK,Oklahoma,Carter,ARDMORE,73401
95652,United States,OK,Oklahoma,Washington,BARTLESVILLE,74003
95677,United States,OK,Oklahoma,Washington,BARTLESVILLE,74006
95702,United States,OK,Oklahoma,Caddo,BINGER,73009
95727,United States,OK,Oklahoma,Choctaw,BOSWELL,74727
95752,United States,OK,Oklahoma,Tulsa,BROKEN ARROW,74011
95777,United States,OK,Oklahoma,Tulsa,BROKEN ARROW,74012
95802,United States,OK,Oklahoma,McCurtain,BROKEN BOW,74728
95827,United States,OK,Oklahoma,Le Flore,CAMERON,74932
95852,United States,OK,Oklahoma,Lincoln,CHANDLER,74834
95877,United States,OK,Oklahoma,McIntosh,CHECOTAH,74426
95902,United States,OK,Oklahoma,Grady,CHICKASHA,73018
95927,United States,OK,Oklahoma,Rogers,CLAREMORE,74017
95952,United States,OK,Oklahoma,Pawnee,CLEVELAND,74020
95977,United States,OK,Oklahoma,Custer,CLINTON,73601
96002,United States,OK,Oklahoma,Coal,COALGATE,74538
96027,United States,OK,Oklahoma,Payne,CUSHING,74023
96052,United States,OK,Oklahoma,Creek,DRUMRIGHT,74030
96077,United States,OK,Oklahoma,Stephens,DUNCAN,73533
96102,United States,OK,Oklahoma,Stephens,DUNCAN,73534
96127,United States,OK,Oklahoma,Bryan,DURANT,74701
96152,United States,OK,Oklahoma,Oklahoma,EDMOND,73013
96177,United States,OK,Oklahoma,Oklahoma,EDMOND,73034
96202,United States,OK,Oklahoma,Canadian,EL RENO,73036
96227,United States,OK,Oklahoma,Comanche,ELGIN,73538
96252,United States,OK,Oklahoma,Beckham,ELK CITY,73644
96277,United States,OK,Oklahoma,Garfield,ENID,73701
96302,United States,OK,Oklahoma,Garfield,ENID,73703
96327,United States,OK,Oklahoma,McIntosh,EUFAULA,74432
96352,United States,OK,Oklahoma,Choctaw,FORT TOWSON,74735
96377,United States,OK,Oklahoma,Tillman,FREDERICK,73542
96402,United States,OK,Oklahoma,Sequoyah,GORE,74435
96427,United States,OK,Oklahoma,Delaware,GROVE,74344
96452,United States,OK,Oklahoma,Logan,GUTHRIE,73044
96477,United States,OK,Oklahoma,Texas,GUYMON,73942
96502,United States,OK,Oklahoma,Okmulgee,HENRYETTA,74437
96527,United States,OK,Oklahoma,Kiowa,HOBART,73651
96552,United States,OK,Oklahoma,Hughes,HOLDENVILLE,74848
96577,United States,OK,Oklahoma,Harmon,HOLLIS,73550
96602,United States,OK,Oklahoma,Choctaw,HUGO,74743
96627,United States,OK,Oklahoma,McCurtain,IDABEL,74745
96652,United States,OK,Oklahoma,Haskell,KEOTA,74941
96677,United States,OK,Oklahoma,Mayes,KETCHUM,74349
96702,United States,OK,Oklahoma,Kingfisher,KINGFISHER,73750
96727,United States,OK,Oklahoma,Marshall,KINGSTON,73439
96752,United States,OK,Oklahoma,Comanche,LAWTON,73501
96777,United States,OK,Oklahoma,Comanche,LAWTON,73502
96802,United States,OK,Oklahoma,Comanche,LAWTON,73505
96827,United States,OK,Oklahoma,Marshall,MADILL,73446
96852,United States,OK,Oklahoma,Greer,MANGUM,73554
96877,United States,OK,Oklahoma,Pittsburg,MCALESTER,74501
96902,United States,OK,Oklahoma,Ottawa,MIAMI,74354
96927,United States,OK,Oklahoma,Sequoyah,MULDROW,74948
96952,United States,OK,Oklahoma,Muskogee,MUSKOGEE,74401
96977,United States,OK,Oklahoma,Muskogee,MUSKOGEE,74403
97002,United States,OK,Oklahoma,Canadian,MUSTANG,73064
97027,United States,OK,Oklahoma,Cleveland,NOBLE,73068
97052,United States,OK,Oklahoma,Cleveland,NORMAN,73069
97077,United States,OK,Oklahoma,Cleveland,NORMAN,73071
97102,United States,OK,Oklahoma,Cleveland,NORMAN,73072
97127,United States,OK,Oklahoma,Oklahoma,OKLAHOMA CITY,73102
97152,United States,OK,Oklahoma,Oklahoma,OKLAHOMA CITY,73103
97177,United States,OK,Oklahoma,Oklahoma,OKLAHOMA CITY,73106
97202,United States,OK,Oklahoma,Oklahoma,OKLAHOMA CITY,73107
97227,United States,OK,Oklahoma,Oklahoma,OKLAHOMA CITY,73108
97252,United States,OK,Oklahoma,Oklahoma,OKLAHOMA CITY,73112
97277,United States,OK,Oklahoma,Oklahoma,OKLAHOMA CITY,73116
97302,United States,OK,Oklahoma,Oklahoma,OKLAHOMA CITY,73118
97327,United States,OK,Oklahoma,Oklahoma,OKLAHOMA CITY,73119
97352,United States,OK,Oklahoma,Oklahoma,OKLAHOMA CITY,73120
97377,United States,OK,Oklahoma,Oklahoma,OKLAHOMA CITY,73127
97402,United States,OK,Oklahoma,Oklahoma,OKLAHOMA CITY,73134
97427,United States,OK,Oklahoma,Oklahoma,OKLAHOMA CITY,73135
97452,United States,OK,Oklahoma,Cleveland,OKLAHOMA CITY,73139
97477,United States,OK,Oklahoma,Oklahoma,OKLAHOMA CITY,73142
97502,United States,OK,Oklahoma,Oklahoma,OKLAHOMA CITY,73159
97527,United States,OK,Oklahoma,Oklahoma,OKLAHOMA CITY,73162
97552,United States,OK,Oklahoma,Cleveland,OKLAHOMA CITY,73170
97577,United States,OK,Oklahoma,Okmulgee,OKMULGEE,74447
97602,United States,OK,Oklahoma,Tulsa,OWASSO,74055
97627,United States,OK,Oklahoma,Garvin,PAULS VALLEY,73075
97652,United States,OK,Oklahoma,Osage,PAWHUSKA,74056
97677,United States,OK,Oklahoma,Noble,PERRY,73077
97702,United States,OK,Oklahoma,Le Flore,POCOLA,74902
97727,United States,OK,Oklahoma,Kay,PONCA CITY,74601
97752,United States,OK,Oklahoma,Le Flore,POTEAU,74953
97777,United States,OK,Oklahoma,Mayes,PRYOR,74361
97802,United States,OK,Oklahoma,McClain,PURCELL,73080
97827,United States,OK,Oklahoma,Sequoyah,ROLAND,74954
97852,United States,OK,Oklahoma,Sequoyah,SALLISAW,74955
97877,United States,OK,Oklahoma,Beckham,SAYRE,73662
97902,United States,OK,Oklahoma,Le Flore,SHADY POINT,74956
97927,United States,OK,Oklahoma,Pottawatomie,SHAWNEE,74801
97952,United States,OK,Oklahoma,Pottawatomie,SHAWNEE,74804
97977,United States,OK,Oklahoma,McCurtain,SMITHVILLE,74957
98002,United States,OK,Oklahoma,Oklahoma,SPENCER,73084
98027,United States,OK,Oklahoma,Le Flore,SPIRO,74959
98052,United States,OK,Oklahoma,Haskell,STIGLER,74462
98077,United States,OK,Oklahoma,Payne,STILLWATER,74074
98102,United States,OK,Oklahoma,Payne,STILLWATER,74076
98127,United States,OK,Oklahoma,Adair,STILWELL,74960
98152,United States,OK,Oklahoma,Lincoln,STROUD,74079
98177,United States,OK,Oklahoma,Murray,SULPHUR,73086
98202,United States,OK,Oklahoma,Cherokee,TAHLEQUAH,74464
98227,United States,OK,Oklahoma,Johnston,TISHOMINGO,73460
98252,United States,OK,Oklahoma,Tulsa,TULSA,74104
98277,United States,OK,Oklahoma,Tulsa,TULSA,74105
98302,United States,OK,Oklahoma,Tulsa,TULSA,74114
98327,United States,OK,Oklahoma,Tulsa,TULSA,74119
98352,United States,OK,Oklahoma,Tulsa,TULSA,74120
98377,United States,OK,Oklahoma,Tulsa,TULSA,74128
98402,United States,OK,Oklahoma,Tulsa,TULSA,74133
98427,United States,OK,Oklahoma,Tulsa,TULSA,74135
98452,United States,OK,Oklahoma,Tulsa,TULSA,74136
98477,United States,OK,Oklahoma,Tulsa,TULSA,74137
98502,United States,OK,Oklahoma,Tulsa,TULSA,74141
98527,United States,OK,Oklahoma,Tulsa,TULSA,74146
98552,United States,OK,Oklahoma,Craig,VINITA,74301
98577,United States,OK,Oklahoma,Cotton,WALTERS,73572
98602,United States,OK,Oklahoma,Custer,WEATHERFORD,73096
98627,United States,OK,Oklahoma,Seminole,WEWOKA,74884
98652,United States,OK,Oklahoma,Carter,WILSON,73463
98677,United States,OK,Oklahoma,Woodward,WOODWARD,73801
98702,United States,OK,Oklahoma,Payne,YALE,74085
111502,United States,TX,Texas,Taylor,ABILENE,79601
111527,United States,TX,Texas,Taylor,ABILENE,79602
111552,United States,TX,Texas,Taylor,ABILENE,79603
111577,United States,TX,Texas,Taylor,ABILENE,79605
111602,United States,TX,Texas,Taylor,ABILENE,79606
111627,United States,TX,Texas,Dallas,ADDISON,75001
111652,United States,TX,Texas,Hidalgo,ALAMO,78516
111677,United States,TX,Texas,Shackelford,ALBANY,76430
111702,United States,TX,Texas,Parker,ALEDO,76008
111727,United States,TX,Texas,Jim Wells,ALICE,78332
111752,United States,TX,Texas,Collin,ALLEN,75002
111777,United States,TX,Texas,Collin,ALLEN,75013
111802,United States,TX,Texas,Brewster,ALPINE,79830
111827,United States,TX,Texas,Hidalgo,ALTON,78573
111852,United States,TX,Texas,Brazoria,ALVIN,77511
111877,United States,TX,Texas,Potter,AMARILLO,79101
111902,United States,TX,Texas,Potter,AMARILLO,79102
111927,United States,TX,Texas,Potter,AMARILLO,79106
111952,United States,TX,Texas,Randall,AMARILLO,79109
111977,United States,TX,Texas,Chambers,ANAHUAC,77514
112002,United States,TX,Texas,Andrews,ANDREWS,79714
112027,United States,TX,Texas,Brazoria,ANGLETON,77515
112052,United States,TX,Texas,San Patricio,ARANSAS PASS,78336
112077,United States,TX,Texas,Tarrant,ARLINGTON,76001
112102,United States,TX,Texas,Tarrant,ARLINGTON,76002
112127,United States,TX,Texas,Tarrant,ARLINGTON,76006
112152,United States,TX,Texas,Tarrant,ARLINGTON,76010
112177,United States,TX,Texas,Tarrant,ARLINGTON,76011
112202,United States,TX,Texas,Tarrant,ARLINGTON,76012
112227,United States,TX,Texas,Tarrant,ARLINGTON,76013
112252,United States,TX,Texas,Tarrant,ARLINGTON,76014
112277,United States,TX,Texas,Tarrant,ARLINGTON,76015
112302,United States,TX,Texas,Tarrant,ARLINGTON,76016
112327,United States,TX,Texas,Tarrant,ARLINGTON,76017
112352,United States,TX,Texas,Tarrant,ARLINGTON,76018
112377,United States,TX,Texas,Henderson,ATHENS,75751
112402,United States,TX,Texas,Cass,ATLANTA,75551
112427,United States,TX,Texas,Travis,AUSTIN,78704
112452,United States,TX,Texas,Travis,AUSTIN,78722
112477,United States,TX,Texas,Travis,AUSTIN,78723
112502,United States,TX,Texas,Travis,AUSTIN,78731
112527,United States,TX,Texas,Travis,AUSTIN,78735
112552,United States,TX,Texas,Travis,AUSTIN,78736
112577,United States,TX,Texas,Travis,AUSTIN,78744
112602,United States,TX,Texas,Travis,AUSTIN,78746
112627,United States,TX,Texas,Travis,AUSTIN,78750
112652,United States,TX,Texas,Travis,AUSTIN,78752
112677,United States,TX,Texas,Travis,AUSTIN,78754
112702,United States,TX,Texas,Travis,AUSTIN,78757
112727,United States,TX,Texas,Travis,AUSTIN,78759
112752,United States,TX,Texas,Tarrant,AZLE,76020
112777,United States,TX,Texas,Runnels,BALLINGER,76821
112802,United States,TX,Texas,Bastrop,BASTROP,78602
112827,United States,TX,Texas,Matagorda,BAY CITY,77414
112852,United States,TX,Texas,Harris,BAYTOWN,77521
112877,United States,TX,Texas,Chambers,BAYTOWN,77523
112902,United States,TX,Texas,Jefferson,BEAUMONT,77701
112927,United States,TX,Texas,Jefferson,BEAUMONT,77702
112952,United States,TX,Texas,Jefferson,BEAUMONT,77705
112977,United States,TX,Texas,Jefferson,BEAUMONT,77706
113002,United States,TX,Texas,Jefferson,BEAUMONT,77707
113027,United States,TX,Texas,Jefferson,BEAUMONT,77708
113052,United States,TX,Texas,Tarrant,BEDFORD,76021
113077,United States,TX,Texas,Tarrant,BEDFORD,76022
113102,United States,TX,Texas,Bee,BEEVILLE,78102
113127,United States,TX,Texas,Harris,BELLAIRE,77401
113152,United States,TX,Texas,Duval,BENAVIDES,78341
113177,United States,TX,Texas,Tarrant,BENBROOK,76126
113202,United States,TX,Texas,Tarrant,BENBROOK,76132
113227,United States,TX,Texas,Howard,BIG SPRING,79720
113252,United States,TX,Texas,Kendall,BOERNE,78006
113277,United States,TX,Texas,Red River,BOGATA,75417
113302,United States,TX,Texas,Fannin,BONHAM,75418
113327,United States,TX,Texas,Hutchinson,BORGER,79007
113352,United States,TX,Texas,McCulloch,BRADY,76825
113377,United States,TX,Texas,Washington,BRENHAM,77833
113402,United States,TX,Texas,Orange,BRIDGE CITY,77611
113427,United States,TX,Texas,Wise,BRIDGEPORT,76426
113452,United States,TX,Texas,Terry,BROWNFIELD,79316
113477,United States,TX,Texas,Cameron,BROWNSVILLE,78520
113502,United States,TX,Texas,Cameron,BROWNSVILLE,78521
113527,United States,TX,Texas,Cameron,BROWNSVILLE,78526
113552,United States,TX,Texas,Brown,BROWNWOOD,76801
113577,United States,TX,Texas,Brazos,BRYAN,77802
113602,United States,TX,Texas,Hays,BUDA,78610
113627,United States,TX,Texas,Jasper,BUNA,77612
113652,United States,TX,Texas,Johnson,BURLESON,76028
113677,United States,TX,Texas,Burnet,BURNET,78611
113702,United States,TX,Texas,Milam,CAMERON,76520
113727,United States,TX,Texas,Hemphill,CANADIAN,79014
113752,United States,TX,Texas,Dimmit,CARRIZO SPRINGS,78834
113777,United States,TX,Texas,Dallas,CARROLLTON,75006
113802,United States,TX,Texas,Denton,CARROLLTON,75007
113827,United States,TX,Texas,Denton,CARROLLTON,75010
113852,United States,TX,Texas,Panola,CARTHAGE,75633
113877,United States,TX,Texas,Dallas,CEDAR HILL,75104
113902,United States,TX,Texas,Williamson,CEDAR PARK,78613
113927,United States,TX,Texas,Shelby,CENTER,75935
113952,United States,TX,Texas,Tyler,CHESTER,75936
113977,United States,TX,Texas,Childress,CHILDRESS,79201
114002,United States,TX,Texas,Eastland,CISCO,76437
114027,United States,TX,Texas,Donley,CLARENDON,79226
114052,United States,TX,Texas,Liberty,CLARK,77327
114077,United States,TX,Texas,Red River,CLARKSVILLE,75426
114102,United States,TX,Texas,Johnson,CLEBURNE,76033
114127,United States,TX,Texas,Liberty,CLEVELAND,77327
114152,United States,TX,Texas,Bosque,CLIFTON,76634
114177,United States,TX,Texas,El Paso,CLINT,79836
114202,United States,TX,Texas,Coleman,COLEMAN,76834
114227,United States,TX,Texas,Brazos,COLLEGE STATION,77840
114252,United States,TX,Texas,Brazos,COLLEGE STATION,77845
114277,United States,TX,Texas,Mitchell,COLORADO CITY,79512
114302,United States,TX,Texas,Comanche,COMANCHE,76442
114327,United States,TX,Texas,Hunt,COMMERCE,75428
114352,United States,TX,Texas,Montgomery,CONROE,77301
114377,United States,TX,Texas,Montgomery,CONROE,77304
114402,United States,TX,Texas,Delta,COOPER,75432
114427,United States,TX,Texas,Dallas,COPPELL,75019
114452,United States,TX,Texas,Coryell,COPPERAS COVE,76522
114477,United States,TX,Texas,Denton,CORINTH,76210
114502,United States,TX,Texas,Nueces,CORPUS CHRISTI,78401
114527,United States,TX,Texas,Nueces,CORPUS CHRISTI,78404
114552,United States,TX,Texas,Nueces,CORPUS CHRISTI,78405
114577,United States,TX,Texas,Nueces,CORPUS CHRISTI,78408
114602,United States,TX,Texas,Nueces,CORPUS CHRISTI,78410
114627,United States,TX,Texas,Nueces,CORPUS CHRISTI,78411
114652,United States,TX,Texas,Nueces,CORPUS CHRISTI,78412
114677,United States,TX,Texas,Nueces,CORPUS CHRISTI,78413
114702,United States,TX,Texas,Nueces,CORPUS CHRISTI,78414
114727,United States,TX,Texas,Nueces,CORPUS CHRISTI,78415
114752,United States,TX,Texas,Nueces,CORPUS CHRISTI,78418
114777,United States,TX,Texas,Navarro,CORSICANA,75110
114802,United States,TX,Texas,Crane,CRANE,79731
114827,United States,TX,Texas,Houston,CROCKETT,75835
114852,United States,TX,Texas,Harris,CROSBY,77532
114877,United States,TX,Texas,Crosby,CROSBYTON,79322
114902,United States,TX,Texas,Zavala,CRYSTAL CITY,78839
114927,United States,TX,Texas,DeWitt,CUERO,77954
114952,United States,TX,Texas,Harris,CYPRESS,77429
114977,United States,TX,Texas,Harris,CYPRESS,77433
115002,United States,TX,Texas,Dallam,DALHART,79022
115027,United States,TX,Texas,Dallas,DALLAS,75081
115052,United States,TX,Texas,Dallas,DALLAS,75203
115077,United States,TX,Texas,Dallas,DALLAS,75204
115102,United States,TX,Texas,Dallas,DALLAS,75206
115127,United States,TX,Texas,Dallas,DALLAS,75207
115152,United States,TX,Texas,Dallas,DALLAS,75208
115177,United States,TX,Texas,Dallas,DALLAS,75212
115202,United States,TX,Texas,Dallas,DALLAS,75214
115227,United States,TX,Texas,Dallas,DALLAS,75215
115252,United States,TX,Texas,Dallas,DALLAS,75216
115277,United States,TX,Texas,Dallas,DALLAS,75217
115302,United States,TX,Texas,Dallas,DALLAS,75218
115327,United States,TX,Texas,Dallas,DALLAS,75220
115352,United States,TX,Texas,Dallas,DALLAS,75224
115377,United States,TX,Texas,Dallas,DALLAS,75228
115402,United States,TX,Texas,Dallas,DALLAS,75229
115427,United States,TX,Texas,Dallas,DALLAS,75230
115452,United States,TX,Texas,Dallas,DALLAS,75231
115477,United States,TX,Texas,Dallas,DALLAS,75232
115502,United States,TX,Texas,Dallas,DALLAS,75234
115527,United States,TX,Texas,Dallas,DALLAS,75235
115552,United States,TX,Texas,Dallas,DALLAS,75237
115577,United States,TX,Texas,Dallas,DALLAS,75238
115602,United States,TX,Texas,Dallas,DALLAS,75240
115627,United States,TX,Texas,Dallas,DALLAS,75243
115652,United States,TX,Texas,Dallas,DALLAS,75244
115677,United States,TX,Texas,Dallas,DALLAS,75247
115702,United States,TX,Texas,Dallas,DALLAS,75248
115727,United States,TX,Texas,Dallas,DALLAS,75249
115752,United States,TX,Texas,Dallas,DALLAS,75251
115777,United States,TX,Texas,Dallas,DALLAS,75252
115802,United States,TX,Texas,Dallas,DALLAS,75254
115827,United States,TX,Texas,Dallas,DALLAS,75287
115852,United States,TX,Texas,Dallas,DALLAS,75342
115877,United States,TX,Texas,Dallas,DALLAS,75390
115902,United States,TX,Texas,Dallas,DE SOTO,75115
115927,United States,TX,Texas,Wise,DECATUR,76234
115952,United States,TX,Texas,Val Verde,DEL RIO,78840
115977,United States,TX,Texas,Grayson,DENISON,75020
116002,United States,TX,Texas,Denton,DENTON,76201
116027,United States,TX,Texas,Denton,DENTON,76205
116052,United States,TX,Texas,Denton,DENTON,76207
116077,United States,TX,Texas,Denton,DENTON,76209
116102,United States,TX,Texas,Denton,DENTON,76210
116127,United States,TX,Texas,Yoakum,DENVER CITY,79323
116152,United States,TX,Texas,Dallas,DESOTO,75115
116177,United States,TX,Texas,Medina,DEVINE,78016
116202,United States,TX,Texas,Galveston,DICKINSON,77539
116227,United States,TX,Texas,Frio,DILLEY,78017
116252,United States,TX,Texas,Hidalgo,DONNA,78537
116277,United States,TX,Texas,Moore,DUMAS,79029
116302,United States,TX,Texas,Dallas,DUNCANVILLE,75116
116327,United States,TX,Texas,Dallas,DUNCANVILLE,75137
116352,United States,TX,Texas,Maverick,EAGLE PASS,78852
116377,United States,TX,Texas,Brown,EARLY,76802
116402,United States,TX,Texas,Eastland,EASTLAND,76448
116427,United States,TX,Texas,Hidalgo,EDCOUCH,78538
116452,United States,TX,Texas,Hidalgo,EDINBURG,78539
116477,United States,TX,Texas,Hidalgo,EDINBURG,78540
116502,United States,TX,Texas,Hidalgo,EDINBURG,78541
116527,United States,TX,Texas,Hidalgo,EDINBURG,78542
116552,United States,TX,Texas,Jackson,EDNA,77957
116577,United States,TX,Texas,El Paso,EL PASO,79902
116602,United States,TX,Texas,El Paso,EL PASO,79903
116627,United States,TX,Texas,El Paso,EL PASO,79905
116652,United States,TX,Texas,El Paso,EL PASO,79907
116677,United States,TX,Texas,El Paso,EL PASO,79912
116702,United States,TX,Texas,El Paso,EL PASO,79915
116727,United States,TX,Texas,El Paso,EL PASO,79922
116752,United States,TX,Texas,El Paso,EL PASO,79924
116777,United States,TX,Texas,El Paso,EL PASO,79925
116802,United States,TX,Texas,El Paso,EL PASO,79935
116827,United States,TX,Texas,El Paso,EL PASO,79936
116852,United States,TX,Texas,El Paso,EL PASO,79938
116877,United States,TX,Texas,Wichita,ELECTRA,76360
116902,United States,TX,Texas,Ellis,ENNIS,75119
116927,United States,TX,Texas,Tarrant,EULESS,76040
116952,United States,TX,Texas,Dallas,FARMERS BRANCH,75234
116977,United States,TX,Texas,Dallas,FARMERS BRANCH,75244
117002,United States,TX,Texas,Wilson,FLORESVILLE,78114
117027,United States,TX,Texas,Denton,FLOWER MOUND,75028
117052,United States,TX,Texas,Kaufman,FORNEY,75126
117077,United States,TX,Texas,Pecos,FORT STOCKTON,79735
117102,United States,TX,Texas,Tarrant,FORT WORTH,76102
117127,United States,TX,Texas,Tarrant,FORT WORTH,76104
117152,United States,TX,Texas,Tarrant,FORT WORTH,76107
117177,United States,TX,Texas,Tarrant,FORT WORTH,76110
117202,United States,TX,Texas,Tarrant,FORT WORTH,76112
117227,United States,TX,Texas,Tarrant,FORT WORTH,76116
117252,United States,TX,Texas,Tarrant,FORT WORTH,76117
117277,United States,TX,Texas,Tarrant,FORT WORTH,76119
117302,United States,TX,Texas,Tarrant,FORT WORTH,76120
117327,United States,TX,Texas,Tarrant,FORT WORTH,76123
117352,United States,TX,Texas,Tarrant,FORT WORTH,76132
117377,United States,TX,Texas,Tarrant,FORT WORTH,76133
117402,United States,TX,Texas,Tarrant,FORT WORTH,76137
117427,United States,TX,Texas,Robertson,FRANKLIN,77856
117452,United States,TX,Texas,Gillespie,FREDERICKSBURG,78624
117477,United States,TX,Texas,Duval,FREER,78357
117502,United States,TX,Texas,Fort Bend,FRESNO,77545
117527,United States,TX,Texas,Galveston,FRIENDSWOOD,77546
117552,United States,TX,Texas,Parmer,FRIONA,79035
117577,United States,TX,Texas,Collin,FRISCO,75034
117602,United States,TX,Texas,Collin,FRISCO,75035
117627,United States,TX,Texas,Cooke,GAINESVILLE,76240
117652,United States,TX,Texas,Galveston,GALVESTON,77550
117677,United States,TX,Texas,Galveston,GALVESTON,77551
117702,United States,TX,Texas,Dallas,GARLAND,75040
117727,United States,TX,Texas,Dallas,GARLAND,75041
117752,United States,TX,Texas,Dallas,GARLAND,75042
117777,United States,TX,Texas,Dallas,GARLAND,75043
117802,United States,TX,Texas,Dallas,GARLAND,75044
117827,United States,TX,Texas,Coryell,GATESVILLE,76528
117852,United States,TX,Texas,Williamson,GEORGETOWN,78626
117877,United States,TX,Texas,Williamson,GEORGETOWN,78628
117902,United States,TX,Texas,Upshur,GILMER,75644
117927,United States,TX,Texas,Upshur,GILMER,75645
117952,United States,TX,Texas,Gonzales,GONZALES,78629
117977,United States,TX,Texas,Young,GRAHAM,76450
118002,United States,TX,Texas,Hood,GRANBURY,76048
118027,United States,TX,Texas,Dallas,GRAND PRAIRIE,75050
118052,United States,TX,Texas,Dallas,GRAND PRAIRIE,75051
118077,United States,TX,Texas,Dallas,GRAND PRAIRIE,75052
118102,United States,TX,Texas,Tarrant,GRAPEVINE,76051
118127,United States,TX,Texas,Hunt,GREENVILLE,75401
118152,United States,TX,Texas,Hunt,GREENVILLE,75402
118177,United States,TX,Texas,Jefferson,GROVES,77619
118202,United States,TX,Texas,Hamilton,HAMILTON,76531
118227,United States,TX,Texas,Bell,HARKER HEIGHTS,76548
118252,United States,TX,Texas,Cameron,HARLINGEN,78550
118277,United States,TX,Texas,Cameron,HARLINGEN,78552
118302,United States,TX,Texas,Kaufman,HEARTLAND,75126
118327,United States,TX,Texas,Sabine,HEMPHILL,75948
118352,United States,TX,Texas,Waller,HEMPSTEAD,77445
118377,United States,TX,Texas,Rusk,HENDERSON,75652
118402,United States,TX,Texas,Rusk,HENDERSON,75654
118427,United States,TX,Texas,Clay,HENRIETTA,76365
118452,United States,TX,Texas,Deaf Smith,HEREFORD,79045
118477,United States,TX,Texas,Hill,HILLSBORO,76645
118502,United States,TX,Texas,Medina,HONDO,78861
118527,United States,TX,Texas,Burnet,HORSESHOE BAY,78657
118552,United States,TX,Texas,Harris,HOUSTON,77002
118577,United States,TX,Texas,Harris,HOUSTON,77004
118602,United States,TX,Texas,Harris,HOUSTON,77007
118627,United States,TX,Texas,Harris,HOUSTON,77008
118652,United States,TX,Texas,Harris,HOUSTON,77009
118677,United States,TX,Texas,Harris,HOUSTON,77014
118702,United States,TX,Texas,Harris,HOUSTON,77017
118727,United States,TX,Texas,Harris,HOUSTON,77018
118752,United States,TX,Texas,Harris,HOUSTON,77020
118777,United States,TX,Texas,Harris,HOUSTON,77021
118802,United States,TX,Texas,Harris,HOUSTON,77024
118827,United States,TX,Texas,Harris,HOUSTON,77025
118852,United States,TX,Texas,Harris,HOUSTON,77027
118877,United States,TX,Texas,Harris,HOUSTON,77030
118902,United States,TX,Texas,Harris,HOUSTON,77031
118927,United States,TX,Texas,Harris,HOUSTON,77034
118952,United States,TX,Texas,Harris,HOUSTON,77035
118977,United States,TX,Texas,Harris,HOUSTON,77036
119002,United States,TX,Texas,Harris,HOUSTON,77040
119027,United States,TX,Texas,Harris,HOUSTON,77042
119052,United States,TX,Texas,Harris,HOUSTON,77043
119077,United States,TX,Texas,Harris,HOUSTON,77044
119102,United States,TX,Texas,Harris,HOUSTON,77045
119127,United States,TX,Texas,Harris,HOUSTON,77054
119152,United States,TX,Texas,Harris,HOUSTON,77055
119177,United States,TX,Texas,Harris,HOUSTON,77056
119202,United States,TX,Texas,Harris,HOUSTON,77057
119227,United States,TX,Texas,Harris,HOUSTON,77058
119252,United States,TX,Texas,Harris,HOUSTON,77060
119277,United States,TX,Texas,Harris,HOUSTON,77063
119302,United States,TX,Texas,Harris,HOUSTON,77064
119327,United States,TX,Texas,Harris,HOUSTON,77065
119352,United States,TX,Texas,Harris,HOUSTON,77066
119377,United States,TX,Texas,Harris,HOUSTON,77067
119402,United States,TX,Texas,Harris,HOUSTON,77068
119427,United States,TX,Texas,Harris,HOUSTON,77069
119452,United States,TX,Texas,Harris,HOUSTON,77070
119477,United States,TX,Texas,Harris,HOUSTON,77071
119502,United States,TX,Texas,Harris,HOUSTON,77072
119527,United States,TX,Texas,Harris,HOUSTON,77073
119552,United States,TX,Texas,Harris,HOUSTON,77074
119577,United States,TX,Texas,Harris,HOUSTON,77075
119602,United States,TX,Texas,Harris,HOUSTON,77077
119627,United States,TX,Texas,Harris,HOUSTON,77079
119652,United States,TX,Texas,Harris,HOUSTON,77080
119677,United States,TX,Texas,Harris,HOUSTON,77081
119702,United States,TX,Texas,Harris,HOUSTON,77082
119727,United States,TX,Texas,Harris,HOUSTON,77083
119752,United States,TX,Texas,Harris,HOUSTON,77084
119777,United States,TX,Texas,Harris,HOUSTON,77085
119802,United States,TX,Texas,Harris,HOUSTON,77087
119827,United States,TX,Texas,Harris,HOUSTON,77089
119852,United States,TX,Texas,Harris,HOUSTON,77090
119877,United States,TX,Texas,Harris,HOUSTON,77092
119902,United States,TX,Texas,Harris,HOUSTON,77094
119927,United States,TX,Texas,Harris,HOUSTON,77095
119952,United States,TX,Texas,Harris,HOUSTON,77096
119977,United States,TX,Texas,Harris,HOUSTON,77098
120002,United States,TX,Texas,Harris,HOUSTON,77099
120027,United States,TX,Texas,Harris,HOUSTON,77339
120052,United States,TX,Texas,Fort Bend,HOUSTON,77489
120077,United States,TX,Texas,Harris,HUFFMAN,77336
120102,United States,TX,Texas,Cass,HUGHES SPRINGS,75656
120127,United States,TX,Texas,Harris,HUMBLE,77338
120152,United States,TX,Texas,Walker,HUNTSVILLE,77340
120177,United States,TX,Texas,Tarrant,HURST,76053
120202,United States,TX,Texas,Tarrant,HURST,76054
120227,United States,TX,Texas,Wichita,IOWA PARK,76367
120252,United States,TX,Texas,Dallas,IRVING,75038
120277,United States,TX,Texas,Dallas,IRVING,75060
120302,United States,TX,Texas,Dallas,IRVING,75061
120327,United States,TX,Texas,Dallas,IRVING,75062
120352,United States,TX,Texas,Dallas,IRVING,75063
120377,United States,TX,Texas,Cherokee,JACKSONVILLE,75766
120402,United States,TX,Texas,Williamson,JARRELL,76537
120427,United States,TX,Texas,Jasper,JASPER,75951
120452,United States,TX,Texas,Harris,KATY,77449
120477,United States,TX,Texas,Harris,KATY,77450
120502,United States,TX,Texas,Harris,KATY,77493
120527,United States,TX,Texas,Harris,KATY,77494
120552,United States,TX,Texas,Kaufman,KAUFMAN,75142
120577,United States,TX,Texas,Tarrant,KELLER,76244
120602,United States,TX,Texas,Tarrant,KELLER,76248
120627,United States,TX,Texas,Henderson,KEMP,75143
120652,United States,TX,Texas,Karnes,KENEDY,78119
120677,United States,TX,Texas,Kerr,KERRVILLE,78028
120702,United States,TX,Texas,Bell,KILEEN,76549
120727,United States,TX,Texas,Bell,KILLEEN,76541
120752,United States,TX,Texas,Bell,KILLEEN,76549
120777,United States,TX,Texas,Kleberg,KINGSVILLE,78363
120802,United States,TX,Texas,Harris,KINGWOOD,77339
120827,United States,TX,Texas,Harris,KINGWOOD,77345
120852,United States,TX,Texas,Jasper,KIRBYVILLE,75956
120877,United States,TX,Texas,Knox,KNOX CITY,79529
120902,United States,TX,Texas,Hays,KYLE,78640
120927,United States,TX,Texas,Cameron,LA FERIA,78559
120952,United States,TX,Texas,Hidalgo,LA JOYA,78560
120977,United States,TX,Texas,Brazoria,LAKE JACKSON,77566
121002,United States,TX,Texas,Dawson,LAMESA,79331
121027,United States,TX,Texas,Lampasas,LAMPASAS,76550
121052,United States,TX,Texas,Dallas,LANCASTER,75134
121077,United States,TX,Texas,Dallas,LANCASTER,75146
121102,United States,TX,Texas,Webb,LAREDO,78040
121127,United States,TX,Texas,Webb,LAREDO,78041
121152,United States,TX,Texas,Webb,LAREDO,78043
121177,United States,TX,Texas,Webb,LAREDO,78045
121202,United States,TX,Texas,Webb,LAREDO,78046
121227,United States,TX,Texas,Galveston,LEAGUE CITY,77573
121252,United States,TX,Texas,Hockley,LEVELLAND,79336
121277,United States,TX,Texas,Denton,LEWISVILLE,75056
121302,United States,TX,Texas,Denton,LEWISVILLE,75057
121327,United States,TX,Texas,Denton,LEWISVILLE,75067
121352,United States,TX,Texas,Denton,LEWISVILLE,75077
121377,United States,TX,Texas,Liberty,LIBERTY,77575
121402,United States,TX,Texas,Denton,LITTLE ELM,75068
121427,United States,TX,Texas,Lamb,LITTLEFIELD,79339
121452,United States,TX,Texas,Polk,LIVINGSTON,77351
121477,United States,TX,Texas,Caldwell,LOCKHART,78644
121502,United States,TX,Texas,Floyd,LOCKNEY,79241
121527,United States,TX,Texas,Gregg,LONGVIEW,75601
121552,United States,TX,Texas,Gregg,LONGVIEW,75604
121577,United States,TX,Texas,Gregg,LONGVIEW,75605
121602,United States,TX,Texas,Lubbock,LUBBOCK,79401
121627,United States,TX,Texas,Lubbock,LUBBOCK,79410
121652,United States,TX,Texas,Lubbock,LUBBOCK,79411
121677,United States,TX,Texas,Lubbock,LUBBOCK,79412
121702,United States,TX,Texas,Lubbock,LUBBOCK,79413
121727,United States,TX,Texas,Lubbock,LUBBOCK,79415
121752,United States,TX,Texas,Lubbock,LUBBOCK,79423
121777,United States,TX,Texas,Lubbock,LUBBOCK,79424
121802,United States,TX,Texas,Angelina,LUFKIN,75901
121827,United States,TX,Texas,Angelina,LUFKIN,75904
121852,United States,TX,Texas,Kaufman,MABANK,75147
121877,United States,TX,Texas,Madison,MADISONVILLE,77864
121902,United States,TX,Texas,Montgomery,MAGNOLIA,77354
121927,United States,TX,Texas,Henderson,MALAKOFF,75148
121952,United States,TX,Texas,Travis,MANOR,78653
121977,United States,TX,Texas,Tarrant,MANSFIELD,76063
122002,United States,TX,Texas,Burnet,MARBLE FALLS,78654
122027,United States,TX,Texas,Falls,MARLIN,76661
122052,United States,TX,Texas,Harrison,MARSHALL,75670
122077,United States,TX,Texas,Mason,MASON,76856
122102,United States,TX,Texas,San Patricio,MATHIS,78368
122127,United States,TX,Texas,Hidalgo,MC ALLEN,78501
122152,United States,TX,Texas,Hidalgo,MCALLEN,78501
122177,United States,TX,Texas,Hidalgo,MCALLEN,78503
122202,United States,TX,Texas,Hidalgo,MCALLEN,78504
122227,United States,TX,Texas,Collin,MCKINNEY,75069
122252,United States,TX,Texas,Collin,MCKINNEY,75070
122277,United States,TX,Texas,Collin,MCKINNEY,75071
122302,United States,TX,Texas,Hidalgo,MERCEDES,78570
122327,United States,TX,Texas,Dallas,MESQUITE,75149
122352,United States,TX,Texas,Dallas,MESQUITE,75150
122377,United States,TX,Texas,Dallas,MESQUITE,75181
122402,United States,TX,Texas,Dallas,MESQUITE,75182
122427,United States,TX,Texas,Midland,MIDLAND,79701
122452,United States,TX,Texas,Midland,MIDLAND,79705
122477,United States,TX,Texas,Ellis,MIDLOTHIAN,76065
122502,United States,TX,Texas,Palo Pinto,MINERAL WELLS,76067
122527,United States,TX,Texas,Hidalgo,MISSION,78572
122552,United States,TX,Texas,Hidalgo,MISSION,78573
122577,United States,TX,Texas,Hidalgo,MISSION,78574
122602,United States,TX,Texas,Fort Bend,MISSOURI CITY,77459
122627,United States,TX,Texas,Fort Bend,MISSOURI CITY,77489
122652,United States,TX,Texas,Montgomery,MONTGOMERY,77316
122677,United States,TX,Texas,Montgomery,MONTGOMERY,77356
122702,United States,TX,Texas,Titus,MOUNT PLEASANT,75455
122727,United States,TX,Texas,Franklin,MOUNT VERNON,75457
122752,United States,TX,Texas,Cooke,MUENSTER,76252
122777,United States,TX,Texas,Collin,MURPHY,75074
122802,United States,TX,Texas,Collin,MURPHY,75094
122827,United States,TX,Texas,Nacogdoches,NACOGDOCHES,75961
122852,United States,TX,Texas,Nacogdoches,NACOGDOCHES,75964
122877,United States,TX,Texas,Nacogdoches,NACOGDOCHES,75965
122902,United States,TX,Texas,Jefferson,NEDERLAND,77627
122927,United States,TX,Texas,Comal,NEW BRAUNFELS,78130
122952,United States,TX,Texas,Comal,NEW BRAUNFELS,78132
122977,United States,TX,Texas,Newton,NEWTON,75966
123002,United States,TX,Texas,Montague,NOCONA,76255
123027,United States,TX,Texas,Houston,NOGALUS,75847
123052,United States,TX,Texas,Tarrant,NORTH RICHLAND HILLS,76180
123077,United States,TX,Texas,Denton,OAK POINT,75068
123102,United States,TX,Texas,Ector,ODESSA,79761
123127,United States,TX,Texas,Ector,ODESSA,79762
123152,United States,TX,Texas,Polk,ONALASKA,77360
123177,United States,TX,Texas,Orange,ORANGE,77630
123202,United States,TX,Texas,Anderson,PALESTINE,75801
123227,United States,TX,Texas,Hidalgo,PALMVIEW,78572
123252,United States,TX,Texas,Hidalgo,PALMVIEW,78574
123277,United States,TX,Texas,Gray,PAMPA,79065
123302,United States,TX,Texas,Tarrant,PANTEGO,76013
123327,United States,TX,Texas,Lamar,PARIS,75460
123352,United States,TX,Texas,Harris,PASADENA,77502
123377,United States,TX,Texas,Harris,PASADENA,77504
123402,United States,TX,Texas,Harris,PASADENA,77506
123427,United States,TX,Texas,Brazoria,PEARLAND,77581
123452,United States,TX,Texas,Brazoria,PEARLAND,77584
123477,United States,TX,Texas,Frio,PEARSALL,78061
123502,United States,TX,Texas,Reeves,PECOS,79772
123527,United States,TX,Texas,Hidalgo,PENITAS,78576
123552,United States,TX,Texas,Ochiltree,PERRYTON,79070
123577,United States,TX,Texas,Travis,PFLUGERVILLE,78660
123602,United States,TX,Texas,Hidalgo,PHARR,78577
123627,United States,TX,Texas,Denton,PILOT POINT,76258
123652,United States,TX,Texas,Camp,PITTSBURG,75686
123677,United States,TX,Texas,Hale,PLAINVIEW,79072
123702,United States,TX,Texas,Collin,PLANO,75023
123727,United States,TX,Texas,Collin,PLANO,75024
123752,United States,TX,Texas,Collin,PLANO,75074
123777,United States,TX,Texas,Collin,PLANO,75075
123802,United States,TX,Texas,Collin,PLANO,75093
123827,United States,TX,Texas,Collin,PLANO,75094
123852,United States,TX,Texas,Atascosa,PLEASANTON,78064
123877,United States,TX,Texas,Jefferson,PORT ARTHUR,77640
123902,United States,TX,Texas,Calhoun,PORT LAVACA,77979
123927,United States,TX,Texas,Montgomery,PORTER,77365
123952,United States,TX,Texas,Dallas,RICHARDSON,75080
123977,United States,TX,Texas,Dallas,RICHARDSON,75081
124002,United States,TX,Texas,Dallas,RICHARDSON,75082
124027,United States,TX,Texas,Tarrant,RICHLAND HILLS,76118
124052,United States,TX,Texas,Fort Bend,RICHMOND,77407
124077,United States,TX,Texas,Fort Bend,RICHMOND,77469
124102,United States,TX,Texas,Webb,RIO BRAVO,78046
124127,United States,TX,Texas,Starr,RIO GRANDE CITY,78582
124152,United States,TX,Texas,Nueces,ROBSTOWN,78380
124177,United States,TX,Texas,Aransas,ROCKPORT,78382
124202,United States,TX,Texas,Rockwall,ROCKWALL,75032
124227,United States,TX,Texas,Rockwall,ROCKWALL,75087
124252,United States,TX,Texas,Fort Bend,ROSENBERG,77469
124277,United States,TX,Texas,Fort Bend,ROSENBERG,77471
124302,United States,TX,Texas,Williamson,ROUND ROCK,78664
124327,United States,TX,Texas,Blanco,ROUND ROCK,78665
124352,United States,TX,Texas,Williamson,ROUND ROCK,78681
124377,United States,TX,Texas,Dallas,ROWLETT,75088
124402,United States,TX,Texas,Dallas,ROWLETT,75089
124427,United States,TX,Texas,Rockwall,ROYSE CITY,75189
124452,United States,TX,Texas,Dallas,SACHSE,75048
124477,United States,TX,Texas,Tom Green,SAN ANGELO,76901
124502,United States,TX,Texas,Tom Green,SAN ANGELO,76903
124527,United States,TX,Texas,Tom Green,SAN ANGELO,76904
124552,United States,TX,Texas,Tom Green,SAN ANGELO,76905
124577,United States,TX,Texas,Bexar,SAN ANTONIO,78201
124602,United States,TX,Texas,Bexar,SAN ANTONIO,78202
124627,United States,TX,Texas,Bexar,SAN ANTONIO,78209
124652,United States,TX,Texas,Bexar,SAN ANTONIO,78210
124677,United States,TX,Texas,Bexar,SAN ANTONIO,78212
124702,United States,TX,Texas,Bexar,SAN ANTONIO,78213
124727,United States,TX,Texas,Bexar,SAN ANTONIO,78215
124752,United States,TX,Texas,Bexar,SAN ANTONIO,78216
124777,United States,TX,Texas,Bexar,SAN ANTONIO,78217
124802,United States,TX,Texas,Bexar,SAN ANTONIO,78218
124827,United States,TX,Texas,Bexar,SAN ANTONIO,78221
124852,United States,TX,Texas,Bexar,SAN ANTONIO,78228
124877,United States,TX,Texas,Bexar,SAN ANTONIO,78229
124902,United States,TX,Texas,Bexar,SAN ANTONIO,78230
124927,United States,TX,Texas,Bexar,SAN ANTONIO,78232
124952,United States,TX,Texas,Bexar,SAN ANTONIO,78238
124977,United States,TX,Texas,Bexar,SAN ANTONIO,78240
125002,United States,TX,Texas,Bexar,SAN ANTONIO,78247
125027,United States,TX,Texas,Bexar,SAN ANTONIO,78249
125052,United States,TX,Texas,Bexar,SAN ANTONIO,78251
125077,United States,TX,Texas,Bexar,SAN ANTONIO,78259
125102,United States,TX,Texas,Cameron,SAN BENITO,78586
125127,United States,TX,Texas,Duval,SAN DIEGO,78384
125152,United States,TX,Texas,Hidalgo,SAN JUAN,78589
125177,United States,TX,Texas,Hays,SAN MARCOS,78666
125202,United States,TX,Texas,Denton,SANGER,76266
125227,United States,TX,Texas,Galveston,SANTA FE,77510
125252,United States,TX,Texas,Cameron,SANTA ROSA,78593
125277,United States,TX,Texas,Fayette,SCHULENBURG,78956
125302,United States,TX,Texas,Harris,SEABROOK,77586
125327,United States,TX,Texas,Dallas,SEAGOVILLE,75159
125352,United States,TX,Texas,Austin,SEALY,77474
125377,United States,TX,Texas,Guadalupe,SEGUIN,78155
125402,United States,TX,Texas,Gaines,SEMINOLE,79360
125427,United States,TX,Texas,Baylor,SEYMOUR,76380
125452,United States,TX,Texas,Grayson,SHERMAN,75090
125477,United States,TX,Texas,Grayson,SHERMAN,75092
125502,United States,TX,Texas,Hardin,SILSBEE,77656
125527,United States,TX,Texas,Lubbock,SLATON,79364
125552,United States,TX,Texas,Scurry,SNYDER,79549
125577,United States,TX,Texas,Hardin,SOUR LAKE,77659
125602,United States,TX,Texas,Tarrant,SOUTHLAKE,76092
125627,United States,TX,Texas,Hansford,SPEARMAN,79081
125652,United States,TX,Texas,Harris,SPRING,77379
125677,United States,TX,Texas,Montgomery,SPRING,77386
125702,United States,TX,Texas,Harris,SPRING,77388
125727,United States,TX,Texas,Harris,SPRING,77389
125752,United States,TX,Texas,Fort Bend,STAFFORD,77477
125777,United States,TX,Texas,Jones,STAMFORD,79553
125802,United States,TX,Texas,Martin,STANTON,79782
125827,United States,TX,Texas,Erath,STEPHENVILLE,76401
125852,United States,TX,Texas,Fort Bend,SUGAR LAND,77478
125877,United States,TX,Texas,Fort Bend,SUGAR LAND,77479
125902,United States,TX,Texas,Fort Bend,SUGAR LAND,77498
125927,United States,TX,Texas,Hidalgo,SULLIVAN CITY,78595
125952,United States,TX,Texas,Hopkins,SULPHUR SPRINGS,75482
125977,United States,TX,Texas,Dallas,SUNNYVALE,75182
126002,United States,TX,Texas,Nolan,SWEETWATER,79556
126027,United States,TX,Texas,Williamson,TAYLOR,76574
126052,United States,TX,Texas,Freestone,TEAGUE,75860
126077,United States,TX,Texas,Bell,TEMPLE,76501
126102,United States,TX,Texas,Bell,TEMPLE,76502
126127,United States,TX,Texas,Bell,TEMPLE,76503
126152,United States,TX,Texas,Bell,TEMPLE,76504
126177,United States,TX,Texas,Kaufman,TERRELL,75160
126202,United States,TX,Texas,Bowie,TEXARKANA,75501
126227,United States,TX,Texas,Bowie,TEXARKANA,75503
126252,United States,TX,Texas,Bowie,TEXARKANA,75504
126277,United States,TX,Texas,Galveston,TEXAS CITY,77591
126302,United States,TX,Texas,Denton,THE COLONY,75056
126327,United States,TX,Texas,Montgomery,THE WOODLANDS,77380
126352,United States,TX,Texas,Montgomery,THE WOODLANDS,77381
126377,United States,TX,Texas,Throckmorton,THROCKMORTON,76483
126402,United States,TX,Texas,Harris,TOMBALL,77375
126427,United States,TX,Texas,Harris,TOMBALL,77377
126452,United States,TX,Texas,Smith,TYLER,75701
126477,United States,TX,Texas,Smith,TYLER,75702
126502,United States,TX,Texas,Smith,TYLER,75703
126527,United States,TX,Texas,Smith,TYLER,75705
126552,United States,TX,Texas,Smith,TYLER,75706
126577,United States,TX,Texas,Van Zandt,VAN,75790
126602,United States,TX,Texas,Grayson,VAN ALSTYNE,75495
126627,United States,TX,Texas,Wilbarger,VERNON,76384
126652,United States,TX,Texas,Victoria,VICTORIA,77901
126677,United States,TX,Texas,Victoria,VICTORIA,77904
126702,United States,TX,Texas,Orange,VIDOR,77662
126727,United States,TX,Texas,McLennan,WACO,76708
126752,United States,TX,Texas,McLennan,WACO,76710
126777,United States,TX,Texas,McLennan,WACO,76712
126802,United States,TX,Texas,Waller,WALLER,77484
126827,United States,TX,Texas,Harrison,WASKOM,75692
126852,United States,TX,Texas,Ellis,WAXAHACHIE,75165
126877,United States,TX,Texas,Ellis,WAXAHACHIE,75167
126902,United States,TX,Texas,Parker,WEATHERFORD,76086
126927,United States,TX,Texas,Harris,WEBSTER,77598
126952,United States,TX,Texas,Collingsworth,WELLINGTON,79095
126977,United States,TX,Texas,Hidalgo,WESLACO,78596
127002,United States,TX,Texas,Wharton,WHARTON,77488
127027,United States,TX,Texas,Wheeler,WHEELER,79096
127052,United States,TX,Texas,Tarrant,WHITE SETTLEMENT,76108
127077,United States,TX,Texas,Grayson,WHITESBORO,76273
127102,United States,TX,Texas,Hill,WHITNEY,76692
127127,United States,TX,Texas,Wichita,WICHITA FALLS,76301
127152,United States,TX,Texas,Wichita,WICHITA FALLS,76302
127177,United States,TX,Texas,Wichita,WICHITA FALLS,76308
127202,United States,TX,Texas,Wichita,WICHITA FALLS,76310
127227,United States,TX,Texas,Van Zandt,WILLS POINT,75169
127252,United States,TX,Texas,Hays,WIMBERLEY,78676
127277,United States,TX,Texas,Runnels,WINTERS,79567
127302,United States,TX,Texas,Tyler,WOODVILLE,75979
127327,United States,TX,Texas,McLennan,WOODWAY,76712
127352,United States,TX,Texas,Dallas,WYLIE,75098
127377,United States,TX,Texas,Lavaca,YOAKUM,77995
127402,United States,TX,Texas,Zapata,ZAPATA,78076
